{"version": 0.6, "generator": "Overpass API 0.7.62.7 375dc00a", "osm3s": {"timestamp_osm_base": "2025-08-12T02:45:58Z", "copyright": "The data included in this document is from www.openstreetmap.org. The data is made available under ODbL."}, "elements": [{"type": "node", "id": 12487353396, "lat": 8.563553, "lon": -75.9639368, "tags": {"addr:city": "Monter\u00eda", "addr:state": "C\u00f3rdoba", "amenity": "school", "name": "Escuela Nva Elena Ospina De Ospina", "operator:type": "private", "phone": "7826321", "source": "DANE"}}, {"type": "node", "id": 12487370888, "lat": 8.3059436, "lon": -75.9195838, "tags": {"addr:city": "Tierralta", "addr:state": "C\u00f3rdoba", "amenity": "school", "name": "Escuela Nva Sta Teresita", "operator:type": "public", "source": "DANE"}}, {"type": "node", "id": 12487370979, "lat": 8.3006526, "lon": -75.7980251, "tags": {"addr:city": "Tierralta", "addr:state": "C\u00f3rdoba", "amenity": "school", "name": "Escuela Nva Severinera", "operator:type": "public", "phone": "7771324", "source": "DANE"}}, {"type": "node", "id": 12487371036, "lat": 8.288099, "lon": -75.932474, "tags": {"addr:city": "Tierralta", "addr:state": "C\u00f3rdoba", "amenity": "school", "name": "Escuela Viviano", "operator:type": "public", "phone": "7771315", "source": "DANE"}}, {"type": "node", "id": 12487371168, "lat": 8.5319724, "lon": -75.675788, "tags": {"addr:city": "San Carlos", "addr:state": "C\u00f3rdoba", "amenity": "school", "name": "Centro Educativo Cent Doc El Charco", "operator:type": "public", "source": "DANE"}}, {"type": "node", "id": 12487371175, "lat": 8.5981602, "lon": -75.6984907, "tags": {"addr:city": "San Carlos", "addr:state": "C\u00f3rdoba", "amenity": "school", "name": "Escuela Rur Mix Trementino Medio", "operator:type": "public", "source": "DANE"}}, {"type": "node", "id": 12487371283, "lat": 8.3384124, "lon": -75.7381981, "tags": {"addr:city": "Monter\u00eda", "addr:state": "C\u00f3rdoba", "amenity": "school", "name": "Escuela Rural Mixta De La Fe", "operator:type": "public", "source": "DANE"}}, {"type": "node", "id": 12487371284, "lat": 8.32131, "lon": -75.7566389, "tags": {"addr:city": "Monter\u00eda", "addr:state": "C\u00f3rdoba", "amenity": "school", "name": "Escuela Rural Mixta Simon Bolivar", "operator:type": "public", "source": "DANE"}}, {"type": "node", "id": 12487371285, "lat": 8.469722, "lon": -75.754167, "tags": {"addr:city": "Monter\u00eda", "addr:state": "C\u00f3rdoba", "amenity": "school", "name": "Escuela Rural Mixta El Rosario", "operator:type": "public", "source": "DANE"}}, {"type": "node", "id": 12487371290, "lat": 8.5903933, "lon": -75.9006907, "tags": {"addr:city": "Monter\u00eda", "addr:state": "C\u00f3rdoba", "amenity": "school", "name": "Escuela Rural Mixta Galilea", "operator:type": "public", "source": "DANE"}}, {"type": "node", "id": 12487371292, "lat": 8.4774943, "lon": -75.7998265, "tags": {"addr:city": "Monter\u00eda", "addr:state": "C\u00f3rdoba", "amenity": "school", "name": "Escuela Rural Mixta De La Piedra", "operator:type": "public", "source": "DANE"}}, {"type": "node", "id": 12487371293, "lat": 8.4694444, "lon": -75.7541667, "tags": {"addr:city": "Monter\u00eda", "addr:state": "C\u00f3rdoba", "amenity": "school", "name": "Escuela Rural Mixta El Porvenir", "operator:type": "public", "source": "DANE"}}, {"type": "node", "id": 12487371304, "lat": 8.4771598, "lon": -75.6853759, "tags": {"addr:city": "Monter\u00eda", "addr:state": "C\u00f3rdoba", "amenity": "school", "name": "Escuela Rural Mixta El Delirio", "operator:type": "public", "source": "DANE"}}, {"type": "node", "id": 12487371307, "lat": 8.4422009, "lon": -75.9522052, "tags": {"addr:city": "Monter\u00eda", "addr:state": "C\u00f3rdoba", "amenity": "school", "name": "Escuela Rural Mixta Tres Piedras", "operator:type": "public", "phone": "7824099", "source": "DANE"}}, {"type": "node", "id": 12487371310, "lat": 8.584698, "lon": -75.9505508, "tags": {"addr:city": "Monter\u00eda", "addr:state": "C\u00f3rdoba", "amenity": "school", "name": "Sede Mi Amiguito", "operator:type": "public", "phone": "7860014", "source": "DANE"}}, {"type": "node", "id": 12487371311, "lat": 8.4537175, "lon": -75.9103267, "tags": {"addr:city": "Monter\u00eda", "addr:state": "C\u00f3rdoba", "amenity": "school", "name": "Escuela Rural Mixta Apartada De Maracayo", "operator:type": "public", "source": "DANE"}}, {"type": "node", "id": 12487371313, "lat": 8.5275095, "lon": -75.8880596, "tags": {"addr:city": "Monter\u00eda", "addr:state": "C\u00f3rdoba", "amenity": "school", "name": "Escuela Rural Mixta La Esperanza", "operator:type": "public", "source": "DANE"}}, {"type": "node", "id": 12487371317, "lat": 8.4936022, "lon": -75.9698535, "tags": {"addr:city": "Monter\u00eda", "addr:state": "C\u00f3rdoba", "amenity": "school", "name": "Escuela Rural Mixta El Limon", "operator:type": "public", "source": "DANE"}}, {"type": "node", "id": 12487371345, "lat": 8.4262021, "lon": -75.73166, "tags": {"addr:city": "Monter\u00eda", "addr:state": "C\u00f3rdoba", "amenity": "school", "name": "Escuela Rural Mixta La Parcelacion", "operator:type": "public", "source": "DANE"}}, {"type": "node", "id": 12487371346, "lat": 8.4017785, "lon": -75.7251772, "tags": {"addr:city": "Monter\u00eda", "addr:state": "C\u00f3rdoba", "amenity": "school", "name": "Centro Educativo Soledad La Manta", "operator:type": "public", "source": "DANE"}}, {"type": "node", "id": 12487371351, "lat": 8.5642424, "lon": -75.8592086, "tags": {"addr:city": "Monter\u00eda", "addr:state": "C\u00f3rdoba", "amenity": "school", "name": "Institucion Educativa San Anterito", "operator:type": "public", "phone": "7821130", "source": "DANE"}}, {"type": "node", "id": 12487371365, "lat": 8.3912251, "lon": -75.6917079, "tags": {"addr:city": "Monter\u00eda", "addr:state": "C\u00f3rdoba", "amenity": "school", "name": "Escuela Rural Mixta Soledad La Manta", "operator:type": "public", "source": "DANE"}}, {"type": "node", "id": 12487371372, "lat": 8.5045986, "lon": -75.6930648, "tags": {"addr:city": "Monter\u00eda", "addr:state": "C\u00f3rdoba", "amenity": "school", "name": "Escuela Rural Mixta El Tesoro", "operator:type": "public", "source": "DANE"}}, {"type": "node", "id": 12487371373, "lat": 8.4990204, "lon": -75.6757271, "tags": {"addr:city": "Monter\u00eda", "addr:state": "C\u00f3rdoba", "amenity": "school", "name": "Escuela Rural Mixta Sta Betulia", "operator:type": "public", "source": "DANE"}}, {"type": "node", "id": 12487371374, "lat": 8.5131921, "lon": -75.7158299, "tags": {"addr:city": "Monter\u00eda", "addr:state": "C\u00f3rdoba", "amenity": "school", "name": "Escuela Rural Mixta San Jacinto", "operator:type": "public", "source": "DANE"}}, {"type": "node", "id": 12487371411, "lat": 8.5269537, "lon": -75.7791154, "tags": {"addr:city": "Monter\u00eda", "addr:state": "C\u00f3rdoba", "amenity": "school", "name": "Escuela Plaza Hormiga", "operator:type": "public", "source": "DANE"}}, {"type": "node", "id": 12487371412, "lat": 8.4105337, "lon": -75.8895207, "tags": {"addr:city": "Monter\u00eda", "addr:state": "C\u00f3rdoba", "amenity": "school", "name": "Escuela Rural Mixta De Maracayo", "operator:type": "public", "source": "DANE"}}, {"type": "node", "id": 12487371414, "lat": 8.4214282, "lon": -75.8610977, "tags": {"addr:city": "Monter\u00eda", "addr:state": "C\u00f3rdoba", "amenity": "school", "name": "Escuela Rural Mixta De Hamaca", "operator:type": "public", "source": "DANE"}}, {"type": "node", "id": 12487371416, "lat": 8.5554152, "lon": -75.9211065, "tags": {"addr:city": "Monter\u00eda", "addr:state": "C\u00f3rdoba", "amenity": "school", "name": "Escuela Rural Mixta La Florida", "operator:type": "public", "source": "DANE"}}, {"type": "node", "id": 12487371418, "lat": 8.5089423, "lon": -75.8570232, "tags": {"addr:city": "Monter\u00eda", "addr:state": "C\u00f3rdoba", "amenity": "school", "name": "Escuela Rur Mix Manchego", "operator:type": "public", "source": "DANE"}}, {"type": "node", "id": 12487371440, "lat": 8.4719535, "lon": -75.758799, "tags": {"addr:city": "Monter\u00eda", "addr:state": "C\u00f3rdoba", "amenity": "school", "name": "Escuela Rural Mixta Buenos Aires", "operator:type": "public", "source": "DANE"}}, {"type": "node", "id": 12487371441, "lat": 8.566325, "lon": -75.8086388, "tags": {"addr:city": "Monter\u00eda", "addr:state": "C\u00f3rdoba", "amenity": "school", "name": "Escuela Rural Mixta El Totumo", "operator:type": "public", "source": "DANE"}}, {"type": "node", "id": 12487371473, "lat": 8.5330928, "lon": -75.725931, "tags": {"addr:city": "Monter\u00eda", "addr:state": "C\u00f3rdoba", "amenity": "school", "name": "Escuela Rural Mixta Camino Real", "operator:type": "public", "source": "DANE"}}, {"type": "node", "id": 12487371478, "lat": 8.5679102, "lon": -75.7583249, "tags": {"addr:city": "Monter\u00eda", "addr:state": "C\u00f3rdoba", "amenity": "school", "name": "Escuela Rur Mix El Corozo", "operator:type": "public", "source": "DANE"}}, {"type": "node", "id": 12487371479, "lat": 8.5569133, "lon": -75.6974369, "tags": {"addr:city": "Monter\u00eda", "addr:state": "C\u00f3rdoba", "amenity": "school", "name": "Escuela Rur Yuca Seca", "operator:type": "public", "source": "DANE"}}, {"type": "node", "id": 12487371481, "lat": 8.5334581, "lon": -75.9012953, "tags": {"addr:city": "Monter\u00eda", "addr:state": "C\u00f3rdoba", "amenity": "school", "name": "Centro Educativo Santa Fe", "operator:type": "public", "source": "DANE"}}, {"type": "node", "id": 12487371482, "lat": 8.4957036, "lon": -75.7152269, "tags": {"addr:city": "Monter\u00eda", "addr:state": "C\u00f3rdoba", "amenity": "school", "name": "Escuela Rur Mix El Changay", "operator:type": "public", "source": "DANE"}}, {"type": "node", "id": 12487371483, "lat": 8.5790293, "lon": -75.7900294, "tags": {"addr:city": "Monter\u00eda", "addr:state": "C\u00f3rdoba", "amenity": "school", "name": "Escuela Rur Camilo Torres", "operator:type": "public", "phone": "7959195", "source": "DANE"}}, {"type": "node", "id": 12487371485, "lat": 8.5425661, "lon": -75.9510877, "tags": {"addr:city": "Monter\u00eda", "addr:state": "C\u00f3rdoba", "amenity": "school", "name": "Colegio Sta Isabel", "operator:type": "public", "source": "DANE"}}, {"type": "node", "id": 12487371488, "lat": 8.5648379, "lon": -75.9418078, "tags": {"addr:city": "Monter\u00eda", "addr:state": "C\u00f3rdoba", "amenity": "school", "name": "Escuela Rural Mixta Palmito Picao", "operator:type": "public", "source": "DANE"}}, {"type": "node", "id": 12487371489, "lat": 8.5930934, "lon": -75.8389832, "tags": {"addr:city": "Monter\u00eda", "addr:state": "C\u00f3rdoba", "amenity": "school", "name": "Escuela Rural Mixta De Mochila", "operator:type": "public", "phone": "7826388", "source": "DANE"}}, {"type": "node", "id": 12487371491, "lat": 8.484648, "lon": -75.9005792, "tags": {"addr:city": "Monter\u00eda", "addr:state": "C\u00f3rdoba", "amenity": "school", "name": "Escuela Rural Mixta De Corea", "operator:type": "public", "source": "DANE"}}, {"type": "node", "id": 12487371492, "lat": 8.5505605, "lon": -75.880475, "tags": {"addr:city": "Monter\u00eda", "addr:state": "C\u00f3rdoba", "amenity": "school", "name": "Escuela Rural Mixta Salaminas", "operator:type": "public", "source": "DANE"}}, {"type": "node", "id": 12487371493, "lat": 8.5789719, "lon": -75.8926958, "tags": {"addr:city": "Monter\u00eda", "addr:state": "C\u00f3rdoba", "amenity": "school", "name": "Escuela Rural Mixta San Isidro", "operator:type": "public", "source": "DANE"}}, {"type": "node", "id": 12487371495, "lat": 8.599042, "lon": -75.8602496, "tags": {"addr:city": "Monter\u00eda", "addr:state": "C\u00f3rdoba", "amenity": "school", "name": "Escuela Rural Mixta De Hoyo Oscuro", "operator:type": "public", "source": "DANE"}}, {"type": "node", "id": 12487371496, "lat": 8.4280112, "lon": -75.7007537, "tags": {"addr:city": "Monter\u00eda", "addr:state": "C\u00f3rdoba", "amenity": "school", "name": "Escuela Rural Mixta Maquencal", "operator:type": "public", "source": "DANE"}}, {"type": "node", "id": 12487371497, "lat": 8.4809598, "lon": -75.830516, "tags": {"addr:city": "Monter\u00eda", "addr:state": "C\u00f3rdoba", "amenity": "school", "name": "Escuela Rural Mixta Leon Del Medio", "operator:type": "public", "source": "DANE"}}, {"type": "node", "id": 12487371498, "lat": 8.4269307, "lon": -75.7767755, "tags": {"addr:city": "Monter\u00eda", "addr:state": "C\u00f3rdoba", "amenity": "school", "name": "Escuela Rural Mixta Nva Lucia", "operator:type": "public", "phone": "7909270", "source": "DANE"}}, {"type": "node", "id": 12487371501, "lat": 8.5014935, "lon": -75.8402676, "tags": {"addr:city": "Monter\u00eda", "addr:state": "C\u00f3rdoba", "amenity": "school", "name": "Escuela Rural Mixta La Poza", "operator:type": "public", "source": "DANE"}}, {"type": "node", "id": 12487371503, "lat": 8.4923172, "lon": -75.9511986, "tags": {"addr:city": "Monter\u00eda", "addr:state": "C\u00f3rdoba", "amenity": "school", "name": "Escuela Rural Mixta Tres Palmas", "operator:type": "public", "source": "DANE"}}, {"type": "node", "id": 12487371506, "lat": 8.4506931, "lon": -75.8462204, "tags": {"addr:city": "Monter\u00eda", "addr:state": "C\u00f3rdoba", "amenity": "school", "name": "Escuela Rur Mix El Leon Abajo", "operator:type": "public", "source": "DANE"}}, {"type": "node", "id": 12487371507, "lat": 8.5989621, "lon": -75.7740293, "tags": {"addr:city": "Monter\u00eda", "addr:state": "C\u00f3rdoba", "amenity": "school", "name": "Escuela Rur Mix El Manguito", "operator:type": "public", "source": "DANE"}}, {"type": "node", "id": 12487371540, "lat": 8.564222, "lon": -75.7371477, "tags": {"addr:city": "Monter\u00eda", "addr:state": "C\u00f3rdoba", "amenity": "school", "name": "Escuela Rur Mix Bonito Viento", "operator:type": "public", "source": "DANE"}}, {"type": "node", "id": 12487371541, "lat": 8.5643837, "lon": -75.8823644, "tags": {"addr:city": "Monter\u00eda", "addr:state": "C\u00f3rdoba", "amenity": "school", "name": "Escuela Rural Mixta El Congo", "operator:type": "public", "source": "DANE"}}, {"type": "node", "id": 12487371545, "lat": 8.5224327, "lon": -75.8158781, "tags": {"addr:city": "Monter\u00eda", "addr:state": "C\u00f3rdoba", "amenity": "school", "name": "Escuela Rural Mixta Socorro", "operator:type": "public", "source": "DANE"}}, {"type": "node", "id": 12487371546, "lat": 8.5319444, "lon": -75.9030556, "tags": {"addr:city": "Monter\u00eda", "addr:state": "C\u00f3rdoba", "amenity": "school", "name": "Escuela Rural Mixta Tres Brindes", "operator:type": "public", "source": "DANE"}}, {"type": "node", "id": 12487371897, "lat": 8.5638669, "lon": -75.8593049, "tags": {"addr:city": "Monter\u00eda", "addr:state": "C\u00f3rdoba", "amenity": "school", "name": "Institucion Educativa San Anteritosede Centro", "operator:type": "public", "phone": "3218978316", "source": "DANE"}}, {"type": "node", "id": 12487371898, "lat": 8.5670205, "lon": -75.8097971, "tags": {"addr:city": "Monter\u00eda", "addr:state": "C\u00f3rdoba", "amenity": "school", "name": "Escuela Rural Mixta El Totumo", "operator:type": "public", "phone": "3116593128", "source": "DANE"}}, {"type": "node", "id": 12487371900, "lat": 8.4876535, "lon": -75.9372073, "tags": {"addr:city": "Monter\u00eda", "addr:state": "C\u00f3rdoba", "amenity": "school", "name": "Escuela Rural Mixta Ya La Lleva", "operator:type": "public", "source": "DANE"}}, {"type": "node", "id": 12487371901, "lat": 8.4817476, "lon": -75.9190831, "tags": {"addr:city": "Monter\u00eda", "addr:state": "C\u00f3rdoba", "amenity": "school", "name": "Escuela Rural Mixta Las Marias", "operator:type": "public", "source": "DANE"}}, {"type": "node", "id": 12487371902, "lat": 8.3680815, "lon": -75.7259841, "tags": {"addr:city": "Monter\u00eda", "addr:state": "C\u00f3rdoba", "amenity": "school", "name": "Escuela Rural Mixta Corrental", "operator:type": "public", "source": "DANE"}}, {"type": "node", "id": 12487371907, "lat": 8.5630251, "lon": -75.9201014, "tags": {"addr:city": "Monter\u00eda", "addr:state": "C\u00f3rdoba", "amenity": "school", "name": "Escuela Nuevo Paraiso", "operator:type": "public", "phone": "7841935", "source": "DANE"}}, {"type": "node", "id": 12487371909, "lat": 8.2894562, "lon": -75.8497436, "tags": {"addr:city": "Monter\u00eda", "addr:state": "C\u00f3rdoba", "amenity": "school", "name": "Centro Educativo Todos Pensamos", "operator:type": "public", "source": "DANE"}}, {"type": "node", "id": 12487371915, "lat": 8.5402787, "lon": -75.7971993, "tags": {"addr:city": "Monter\u00eda", "addr:state": "C\u00f3rdoba", "amenity": "school", "name": "Escuela Rural Mixta Callebarrida", "operator:type": "public", "source": "DANE"}}, {"type": "node", "id": 12487371918, "lat": 8.3252909, "lon": -75.7752189, "tags": {"addr:city": "Monter\u00eda", "addr:state": "C\u00f3rdoba", "amenity": "school", "name": "Escuela El Coquito", "operator:type": "public", "source": "DANE"}}, {"type": "node", "id": 12487371919, "lat": 8.3149392, "lon": -75.7330169, "tags": {"addr:city": "Monter\u00eda", "addr:state": "C\u00f3rdoba", "amenity": "school", "name": "Escuela Rural Mixta Granada", "operator:type": "public", "source": "DANE"}}, {"type": "node", "id": 12487371923, "lat": 8.381124, "lon": -75.7892514, "tags": {"addr:city": "Monter\u00eda", "addr:state": "C\u00f3rdoba", "amenity": "school", "name": "Escuela Rur Mix Parcelas De Quindio", "operator:type": "public", "source": "DANE"}}, {"type": "node", "id": 12487371924, "lat": 8.5150564, "lon": -75.7749514, "tags": {"addr:city": "Monter\u00eda", "addr:state": "C\u00f3rdoba", "amenity": "school", "name": "Escuela Rur Mix Los Limones", "operator:type": "public", "source": "DANE"}}]}