{"version": 0.6, "generator": "Overpass API 0.7.62.8 e802775f", "osm3s": {"timestamp_osm_base": "2025-08-21T01:25:02Z", "copyright": "The data included in this document is from www.openstreetmap.org. The data is made available under ODbL."}, "elements": [{"type": "node", "id": 4313748590, "lat": 8.7537456, "lon": -75.8836905, "tags": {"addr:street": "Calle 28", "amenity": "clinic", "healthcare": "clinic", "name": "Cl\u00ednica Zayma"}}, {"type": "node", "id": 4406891592, "lat": 8.7517275, "lon": -75.881447, "tags": {"addr:street": "Calle 27", "amenity": "clinic", "healthcare": "clinic", "name": "Amigos de la Salud"}}, {"type": "node", "id": 4792651821, "lat": 8.7557714, "lon": -75.8832522, "tags": {"amenity": "clinic", "healthcare": "clinic", "name": "Cl\u00ednica Central", "name:es": "Cl\u00ednica central"}}, {"type": "node", "id": 5270692098, "lat": 8.7712764, "lon": -75.8677406}, {"type": "node", "id": 5286937608, "lat": 8.7720533, "lon": -75.8688006}, {"type": "node", "id": 5326148070, "lat": 8.7451282, "lon": -75.891921}, {"type": "node", "id": 5326148071, "lat": 8.7449744, "lon": -75.8917541}, {"type": "node", "id": 5812700853, "lat": 8.7600813, "lon": -75.8711506, "tags": {"addr:city": "Monter\u00eda", "addr:street": "Calle 44 No. 14 \u2013 282", "amenity": "clinic", "building": "yes", "healthcare": "clinic", "name": "Cl\u00ednica Medicina Integral", "operator": "Medicina Integral", "website": "https://medicinaintegralsa.com/"}}, {"type": "node", "id": 5949001219, "lat": 8.7717004, "lon": -75.8675096}, {"type": "node", "id": 5949455549, "lat": 8.7721401, "lon": -75.8690904}, {"type": "node", "id": 5949455551, "lat": 8.7716479, "lon": -75.8690578}, {"type": "node", "id": 5952238269, "lat": 8.7452602, "lon": -75.8914845}, {"type": "node", "id": 5952238270, "lat": 8.745414, "lon": -75.8916514}, {"type": "node", "id": 5952238271, "lat": 8.7461808, "lon": -75.8922694}, {"type": "node", "id": 5952238273, "lat": 8.7463726, "lon": -75.8924447}, {"type": "node", "id": 5952238274, "lat": 8.7467293, "lon": -75.8921048}, {"type": "node", "id": 5952238275, "lat": 8.7465576, "lon": -75.8918804}, {"type": "node", "id": 6421388788, "lat": 8.7538618, "lon": -75.885731, "tags": {"addr:housenumber": "26-24", "addr:street": "Carrera 6", "amenity": "clinic", "healthcare": "clinic", "name": "Apoyo Diagn\u00f3stico", "name:en": "Digi oral", "opening_hours": "Mo-Fr 08:00-17:00; Sa 08:00-12:00"}}, {"type": "node", "id": 7857121687, "lat": 8.7521417, "lon": -75.8824248, "tags": {"addr:city": "Monter\u00eda", "addr:housenumber": "27-35", "addr:street": "Carrera 10", "amenity": "clinic", "healthcare": "clinic", "healthcare:speciality": "radiology", "name": "Radi\u00f3logos Asociados de C\u00f3rdoba", "opening_hours": "Mo-Sa 09:00-20:00", "opening_hours:covid19": "Mo-Fr 08:00-12:00", "wheelchair": "yes"}}, {"type": "node", "id": 7857121706, "lat": 8.7520514, "lon": -75.882412}, {"type": "node", "id": 7857121707, "lat": 8.7521432, "lon": -75.882523}, {"type": "node", "id": 7857121708, "lat": 8.7522315, "lon": -75.8824482}, {"type": "node", "id": 7857121709, "lat": 8.7521397, "lon": -75.8823372}, {"type": "node", "id": 7857121716, "lat": 8.7524303, "lon": -75.8818401, "tags": {"addr:city": "Monter\u00eda", "addr:housenumber": "10-21", "addr:street": "Calle 28", "amenity": "clinic", "description": "La actividad a la que se dedica la Liga Cordobesa Contra la Epilepsia es a la atenci\u00f3n de la salud humana", "healthcare": "clinic", "healthcare:speciality": "physiotherapy", "name": "Liga Cordobesa Contra la Epilepsia"}}, {"type": "node", "id": 7857121717, "lat": 8.7525712, "lon": -75.8818227}, {"type": "node", "id": 7857121718, "lat": 8.7524689, "lon": -75.8816882}, {"type": "node", "id": 7857121719, "lat": 8.7523336, "lon": -75.8817936}, {"type": "node", "id": 7857121720, "lat": 8.752436, "lon": -75.881928}, {"type": "node", "id": 7857121721, "lat": 8.7521209, "lon": -75.8826259, "tags": {"addr:city": "Monter\u00eda", "addr:housenumber": "9-55", "addr:street": "Calle 27", "amenity": "clinic", "description": "Consulta externa: General y especializada, Apoyo diagn\u00f3stico y complementaci\u00f3n terapeuta; Cirug\u00edas ambulatorias, Atenci\u00f3n domiciliaria.", "healthcare": "clinic", "healthcare:speciality": "general;dentist;ophthalmology;otolaryngology", "name": "Promosalud IPS", "opening_hours": "Mo-Fr 08:00-17:00"}}, {"type": "node", "id": 7857121722, "lat": 8.7520522, "lon": -75.8827226}, {"type": "node", "id": 7857121723, "lat": 8.7520173, "lon": -75.8826766}, {"type": "node", "id": 7857121724, "lat": 8.7520957, "lon": -75.8826158}, {"type": "node", "id": 7857121725, "lat": 8.7520813, "lon": -75.8825969}, {"type": "node", "id": 7857121726, "lat": 8.7522128, "lon": -75.8824948}, {"type": "node", "id": 7857121727, "lat": 8.752262, "lon": -75.8825596}, {"type": "node", "id": 7857121745, "lat": 8.7531511, "lon": -75.882356, "tags": {"addr:city": "Monter\u00eda", "addr:housenumber": "29-10", "addr:street": "Carrera 9", "amenity": "clinic", "healthcare": "clinic", "healthcare:speciality": "general;ophthalmology;internal;dentist;psychiatry;dermatology", "name": "Unidad Perla del Sin\u00fa Salud Total EPS-S"}}, {"type": "node", "id": 7857121746, "lat": 8.7531145, "lon": -75.8824586}, {"type": "node", "id": 7857121747, "lat": 8.7532573, "lon": -75.8823515}, {"type": "node", "id": 7857121748, "lat": 8.7531857, "lon": -75.8822538}, {"type": "node", "id": 7857121749, "lat": 8.7530429, "lon": -75.8823608}, {"type": "node", "id": 9590107414, "lat": 8.875639, "lon": -75.9685403, "tags": {"amenity": "clinic", "name": "Centro de salud"}}, {"type": "node", "id": 11135270824, "lat": 8.7539146, "lon": -75.8815196, "tags": {"amenity": "clinic", "healthcare": "clinic", "name": "Gestar Salud de Colombia IPS S.A.S. - Sede principal"}}, {"type": "node", "id": 12602349733, "lat": 8.7612672, "lon": -75.8784306}, {"type": "node", "id": 12602349734, "lat": 8.7610082, "lon": -75.8786527}, {"type": "node", "id": 12602349735, "lat": 8.7607516, "lon": -75.8783595}, {"type": "node", "id": 12602349736, "lat": 8.7610032, "lon": -75.8781461}, {"type": "node", "id": 12824687854, "lat": 8.7601505, "lon": -75.8711951}, {"type": "node", "id": 12824687855, "lat": 8.7599766, "lon": -75.8713303}, {"type": "node", "id": 12824687856, "lat": 8.7599341, "lon": -75.8712766}, {"type": "node", "id": 12824687857, "lat": 8.7599002, "lon": -75.8713024}, {"type": "node", "id": 12824687858, "lat": 8.7598748, "lon": -75.8712681}, {"type": "node", "id": 12824687859, "lat": 8.7598557, "lon": -75.8712852}, {"type": "node", "id": 12824687860, "lat": 8.7596012, "lon": -75.8709398}, {"type": "node", "id": 12824687861, "lat": 8.759843, "lon": -75.8707638}, {"type": "node", "id": 12824687862, "lat": 8.7601917, "lon": -75.8712056}, {"type": "node", "id": 12824687863, "lat": 8.759628, "lon": -75.8716139}, {"type": "node", "id": 12824687864, "lat": 8.7600234, "lon": -75.8721924}, {"type": "node", "id": 12824687865, "lat": 8.7606246, "lon": -75.871795}, {"type": "node", "id": 12824687866, "lat": 8.7603654, "lon": -75.8719058, "tags": {"addr:city": "Monter\u00eda", "addr:housenumber": "14-232", "addr:street": "Calle 44", "air_conditioning": "yes", "alt_name": "CUMI", "amenity": "clinic", "healthcare": "clinic", "name": "Cl\u00ednica Universitaria Medicina Integral", "opening_hours": "Mo-Fr 07:00-17:00 Sa 8:00-12:00", "website": "https://cumi.com.co/", "wheelchair": "yes"}}, {"type": "node", "id": 12824687874, "lat": 8.7571217, "lon": -75.8853719, "tags": {"addr:city": "Monter\u00eda", "addr:housenumber": "30-8", "addr:street": "Carrera 3", "amenity": "clinic", "healthcare": "clinic", "name": "Medicina Integral Sede Nueva EPS"}}, {"type": "node", "id": 12824687875, "lat": 8.7527222, "lon": -75.8773481, "tags": {"addr:city": "Monter\u00eda", "addr:street": "Carrera 14 #32-18", "air_conditioning": "yes", "amenity": "clinic", "healthcare": "clinic", "name": "Acci\u00f3n Salud", "opening_hours": "Mo-Fr 08:00-12:00, 14:00-17:00", "website": "https://accionsalud.com.co/"}}, {"type": "node", "id": 12824687876, "lat": 8.7526158, "lon": -75.877404, "tags": {"addr:city": "Monter\u00eda", "addr:street": "Carrera 14 #32-10", "amenity": "clinic", "healthcare": "clinic", "name": "Coosalud EPS", "opening_hours": "Mo-Fr 07:00-11:00, 14:00-16:00", "website": "https://coosalud.com/"}}, {"type": "way", "id": 545331776, "nodes": [5949455549, 5949455551, 5270692098, 5949001219, 5286937608, 5949455549], "tags": {"amenity": "clinic", "building": "yes", "healthcare": "clinic", "name": "Cl\u00ednica Monter\u00eda"}}, {"type": "way", "id": 545331782, "nodes": [5952238274, 5952238273, 5952238271, 5952238275, 5952238274], "tags": {"amenity": "clinic", "building": "yes", "healthcare": "clinic", "name": "Cl\u00ednica del R\u00edo"}}, {"type": "way", "id": 551506088, "nodes": [5952238270, 5326148070, 5326148071, 5952238269, 5952238270], "tags": {"amenity": "clinic", "building": "yes", "healthcare": "clinic"}}, {"type": "way", "id": 842197718, "nodes": [7857121706, 7857121707, 7857121708, 7857121709, 7857121706], "tags": {"amenity": "clinic", "building": "yes", "healthcare": "clinic"}}, {"type": "way", "id": 842197720, "nodes": [7857121717, 7857121718, 7857121719, 7857121720, 7857121717], "tags": {"amenity": "clinic", "building": "yes", "healthcare": "clinic"}}, {"type": "way", "id": 842197721, "nodes": [7857121722, 7857121723, 7857121724, 7857121725, 7857121726, 7857121727, 7857121722], "tags": {"amenity": "clinic", "building": "yes", "healthcare": "clinic"}}, {"type": "way", "id": 842197725, "nodes": [7857121746, 7857121747, 7857121748, 7857121749, 7857121746], "tags": {"amenity": "clinic", "building": "yes", "healthcare": "clinic"}}, {"type": "way", "id": 1361304113, "nodes": [12602349733, 12602349734, 12602349735, 12602349736, 12602349733], "tags": {"amenity": "clinic", "building": "yes", "healthcare": "clinic", "name": "Casa del Ni\u00f1o"}}, {"type": "way", "id": 1385190504, "nodes": [12824687854, 12824687855, 12824687856, 12824687857, 12824687858, 12824687859, 12824687860, 12824687861, 12824687854], "tags": {"amenity": "clinic", "building": "yes", "healthcare": "clinic"}}, {"type": "way", "id": 1385190505, "nodes": [12824687862, 12824687863, 12824687864, 12824687865, 12824687862], "tags": {"amenity": "clinic", "building": "yes", "healthcare": "clinic", "layer": "1"}}]}