{"version": 0.6, "generator": "Overpass API 0.7.62.7 375dc00a", "osm3s": {"timestamp_osm_base": "2025-08-12T02:45:58Z", "copyright": "The data included in this document is from www.openstreetmap.org. The data is made available under ODbL."}, "elements": [{"type": "node", "id": 703308786, "lat": 8.412811, "lon": -76.1963144, "tags": {"amenity": "school", "comment": "convertido a OSM usando http://GaleNUx.com", "divipola": "23001", "fixme": "Revisar: este punto fue creado por importaci\u00f3n directa", "is_in": "Colombia; C\u00f3rdoba ;", "name": "Esc. Buena Vista", "note": "GEOPUNTO, ESCUELA, 031627c19f818c5a70a359b766ba2003", "source": "OCHA Colombia 2010"}}, {"type": "node", "id": 3527175436, "lat": 8.4490581, "lon": -75.9989107, "tags": {"amenity": "school", "ele": "43.02175819911366", "name": "I.E. Miguel Antonio Caro"}}, {"type": "node", "id": 12487353390, "lat": 8.5317158, "lon": -76.139541, "tags": {"addr:city": "Monter\u00eda", "addr:state": "C\u00f3rdoba", "amenity": "school", "name": "Escuela Rural Mixta Mi Porvenir Escristo Jesus", "operator:type": "private", "source": "DANE"}}, {"type": "node", "id": 12487353391, "lat": 8.5214365, "lon": -76.1927934, "tags": {"addr:city": "Monter\u00eda", "addr:state": "C\u00f3rdoba", "amenity": "school", "name": "Escuela Rur Mix De Integ La Popa", "operator:type": "private", "phone": "7824899", "source": "DANE"}}, {"type": "node", "id": 12487353392, "lat": 8.4601892, "lon": -76.1738053, "tags": {"addr:city": "Monter\u00eda", "addr:state": "C\u00f3rdoba", "amenity": "school", "name": "Escuela Rur Mix El Oyeto", "operator:type": "private", "source": "DANE"}}, {"type": "node", "id": 12487353393, "lat": 8.5198661, "lon": -76.0715836, "tags": {"addr:city": "Monter\u00eda", "addr:state": "C\u00f3rdoba", "amenity": "school", "name": "Escuela Nva De Pereira", "operator:type": "private", "source": "DANE"}}, {"type": "node", "id": 12487353394, "lat": 8.4417721, "lon": -76.0892868, "tags": {"addr:city": "Monter\u00eda", "addr:state": "C\u00f3rdoba", "amenity": "school", "name": "Escuela El Carmen", "operator:type": "private", "source": "DANE"}}, {"type": "node", "id": 12487353395, "lat": 8.4731458, "lon": -76.0355129, "tags": {"addr:city": "Monter\u00eda", "addr:state": "C\u00f3rdoba", "amenity": "school", "name": "Escuela La Bomba", "operator:type": "private", "source": "DANE"}}, {"type": "node", "id": 12487353397, "lat": 8.4754653, "lon": -76.1822286, "tags": {"addr:city": "Monter\u00eda", "addr:state": "C\u00f3rdoba", "amenity": "school", "name": "Escuela Rur Mix San Miguel", "operator:type": "private", "source": "DANE"}}, {"type": "node", "id": 12487353398, "lat": 8.525434, "lon": -76.1259781, "tags": {"addr:city": "Monter\u00eda", "addr:state": "C\u00f3rdoba", "amenity": "school", "name": "Escuela Rural Mixta Verdinal", "operator:type": "private", "source": "DANE"}}, {"type": "node", "id": 12487353399, "lat": 8.545707, "lon": -76.14568, "tags": {"addr:city": "Monter\u00eda", "addr:state": "C\u00f3rdoba", "amenity": "school", "name": "Escuela Rural Mixta Juana Julia 2", "operator:type": "private", "source": "DANE"}}, {"type": "node", "id": 12487370729, "lat": 8.3792232, "lon": -76.1352156, "tags": {"addr:city": "Valencia", "addr:state": "C\u00f3rdoba", "amenity": "school", "name": "Escuela Rural Mixta Tinajones", "operator:type": "public", "source": "DANE"}}, {"type": "node", "id": 12487371287, "lat": 8.4497222, "lon": -75.9991667, "tags": {"addr:city": "Monter\u00eda", "addr:state": "C\u00f3rdoba", "amenity": "school", "name": "Escuela Rur Mix Florisanto", "operator:type": "public", "source": "DANE"}}, {"type": "node", "id": 12487371288, "lat": 8.444342, "lon": -76.0444578, "tags": {"addr:city": "Monter\u00eda", "addr:state": "C\u00f3rdoba", "amenity": "school", "name": "Escuela Nva Los Bajos", "operator:type": "public", "source": "DANE"}}, {"type": "node", "id": 12487371289, "lat": 8.3960798, "lon": -76.1028231, "tags": {"addr:city": "Monter\u00eda", "addr:state": "C\u00f3rdoba", "amenity": "school", "name": "Escuela Rur Mix Las Flores", "operator:type": "public", "source": "DANE"}}, {"type": "node", "id": 12487371295, "lat": 8.3655556, "lon": -76.0733333, "tags": {"addr:city": "Monter\u00eda", "addr:state": "C\u00f3rdoba", "amenity": "school", "name": "Escuela Nva Villavicencio", "operator:type": "public", "source": "DANE"}}, {"type": "node", "id": 12487371299, "lat": 8.3748312, "lon": -76.0277749, "tags": {"addr:city": "Monter\u00eda", "addr:state": "C\u00f3rdoba", "amenity": "school", "name": "Escuela Nva Las Lagrimas", "operator:type": "public", "source": "DANE"}}, {"type": "node", "id": 12487371300, "lat": 8.4503592, "lon": -75.9983025, "tags": {"addr:city": "Monter\u00eda", "addr:state": "C\u00f3rdoba", "amenity": "school", "name": "Liceo Dptal Mix Miguel Antonio Caro", "operator:type": "public", "phone": "826966", "source": "DANE"}}, {"type": "node", "id": 12487371301, "lat": 8.4761792, "lon": -76.1074183, "tags": {"addr:city": "Monter\u00eda", "addr:state": "C\u00f3rdoba", "amenity": "school", "name": "Escuela Nva El Cucharo", "operator:type": "public", "source": "DANE"}}, {"type": "node", "id": 12487371350, "lat": 8.5527328, "lon": -76.1924974, "tags": {"addr:city": "Monter\u00eda", "addr:state": "C\u00f3rdoba", "amenity": "school", "name": "Escuela Rural Mixta El Rincon", "operator:type": "public", "source": "DANE"}}, {"type": "node", "id": 12487371353, "lat": 8.573672, "lon": -76.1983271, "tags": {"addr:city": "Monter\u00eda", "addr:state": "C\u00f3rdoba", "amenity": "school", "name": "Escuela Rural Mixta La Gran China", "operator:type": "public", "source": "DANE"}}, {"type": "node", "id": 12487371356, "lat": 8.4574766, "lon": -76.2032154, "tags": {"addr:city": "Monter\u00eda", "addr:state": "C\u00f3rdoba", "amenity": "school", "name": "Escuela Rur Mix La Octavia", "operator:type": "public", "source": "DANE"}}, {"type": "node", "id": 12487371360, "lat": 8.5524171, "lon": -76.1342586, "tags": {"addr:city": "Monter\u00eda", "addr:state": "C\u00f3rdoba", "amenity": "school", "name": "Centro Educativo Cent Doc Juana Julia 1", "operator:type": "public", "source": "DANE"}}, {"type": "node", "id": 12487371363, "lat": 8.4023854, "lon": -76.1203121, "tags": {"addr:city": "Monter\u00eda", "addr:state": "C\u00f3rdoba", "amenity": "school", "name": "Escuela Nva De Matamoro", "operator:type": "public", "source": "DANE"}}, {"type": "node", "id": 12487371371, "lat": 8.4967377, "lon": -76.1725204, "tags": {"addr:city": "Monter\u00eda", "addr:state": "C\u00f3rdoba", "amenity": "school", "name": "Escuela Rural Mixta San Jose De Loma Verde", "operator:type": "public", "phone": "7824899", "source": "DANE"}}, {"type": "node", "id": 12487371377, "lat": 8.5508292, "lon": -76.2224786, "tags": {"addr:city": "Monter\u00eda", "addr:state": "C\u00f3rdoba", "amenity": "school", "name": "Escuela Rural Mixta Palmira Tusa", "operator:type": "public", "source": "DANE"}}, {"type": "node", "id": 12487371417, "lat": 8.3712145, "lon": -76.0797423, "tags": {"addr:city": "Monter\u00eda", "addr:state": "C\u00f3rdoba", "amenity": "school", "name": "Escuela Nva De Guasimal", "operator:type": "public", "source": "DANE"}}, {"type": "node", "id": 12487371419, "lat": 8.4592974, "lon": -76.0736319, "tags": {"addr:city": "Monter\u00eda", "addr:state": "C\u00f3rdoba", "amenity": "school", "name": "Escuela Nva La Puente", "operator:type": "public", "source": "DANE"}}, {"type": "node", "id": 12487371438, "lat": 8.4993845, "lon": -76.0176458, "tags": {"addr:city": "Monter\u00eda", "addr:state": "C\u00f3rdoba", "amenity": "school", "name": "Escuela Rural Mixta Broquelito", "operator:type": "public", "phone": "7824199", "source": "DANE"}}, {"type": "node", "id": 12487371474, "lat": 8.4429143, "lon": -76.1916512, "tags": {"addr:city": "Monter\u00eda", "addr:state": "C\u00f3rdoba", "amenity": "school", "name": "Escuela Rur Mix San Fco", "operator:type": "public", "phone": "948243418", "source": "DANE"}}, {"type": "node", "id": 12487371475, "lat": 8.591518, "lon": -76.1422908, "tags": {"addr:city": "Monter\u00eda", "addr:state": "C\u00f3rdoba", "amenity": "school", "name": "Centro Educativo Simon Bolivar Del Balsal", "operator:type": "public", "source": "DANE"}}, {"type": "node", "id": 12487371476, "lat": 8.5758136, "lon": -76.2197422, "tags": {"addr:city": "Monter\u00eda", "addr:state": "C\u00f3rdoba", "amenity": "school", "name": "Escuela Rural Mixta Buenavista", "operator:type": "public", "source": "DANE"}}, {"type": "node", "id": 12487371903, "lat": 8.5210082, "lon": -76.1546744, "tags": {"addr:city": "Monter\u00eda", "addr:state": "C\u00f3rdoba", "amenity": "school", "name": "Escuela Rur Mix La Victoria", "operator:type": "public", "source": "DANE"}}, {"type": "node", "id": 12487371904, "lat": 8.3335714, "lon": -75.9839452, "tags": {"addr:city": "Monter\u00eda", "addr:state": "C\u00f3rdoba", "amenity": "school", "name": "Centro Educativo Santafe Parcela Costa De Oro", "operator:type": "public", "source": "DANE"}}, {"type": "node", "id": 12487371905, "lat": 8.4987364, "lon": -76.1221234, "tags": {"addr:city": "Monter\u00eda", "addr:state": "C\u00f3rdoba", "amenity": "school", "name": "Escuela Pueblo Nuevo", "operator:type": "public", "source": "DANE"}}, {"type": "node", "id": 12487371912, "lat": 8.4952778, "lon": -76.1727778, "tags": {"addr:city": "Monter\u00eda", "addr:state": "C\u00f3rdoba", "amenity": "school", "name": "Escuela Rural Mixta San Diego", "operator:type": "public", "phone": "8243418", "source": "DANE"}}, {"type": "node", "id": 12487371913, "lat": 8.4973088, "lon": -76.2007884, "tags": {"addr:city": "Monter\u00eda", "addr:state": "C\u00f3rdoba", "amenity": "school", "name": "Escuela Rural Mixta La Gloria", "operator:type": "public", "source": "DANE"}}, {"type": "node", "id": 12487371916, "lat": 8.5355705, "lon": -76.2045003, "tags": {"addr:city": "Monter\u00eda", "addr:state": "C\u00f3rdoba", "amenity": "school", "name": "Otra sigla Fronteras De Cordoba", "operator:type": "public", "source": "DANE"}}, {"type": "node", "id": 12487371917, "lat": 8.5240063, "lon": -76.173377, "tags": {"addr:city": "Monter\u00eda", "addr:state": "C\u00f3rdoba", "amenity": "school", "name": "Escuela Rural Mixta Carlos Ospina", "operator:type": "public", "phone": "7824899", "source": "DANE"}}, {"type": "node", "id": 12487371921, "lat": 8.5692217, "lon": -76.1341204, "tags": {"addr:city": "Monter\u00eda", "addr:state": "C\u00f3rdoba", "amenity": "school", "name": "Escuela Rur Mix El Boche", "operator:type": "public", "source": "DANE"}}, {"type": "node", "id": 12487373333, "lat": 8.561667, "lon": -76.241667, "tags": {"addr:city": "San Pedro De Urab\u00e1", "addr:state": "Antioquia", "amenity": "school", "name": "Centro Educativo Rur Zapindonga", "operator:type": "public", "source": "DANE"}}, {"type": "node", "id": 12487373343, "lat": 8.484722, "lon": -76.219167, "tags": {"addr:city": "San Pedro De Urab\u00e1", "addr:state": "Antioquia", "amenity": "school", "name": "Centro Educativo Rur Arenas Monas", "operator:type": "public", "phone": "8244038", "source": "DANE"}}]}