{"version": 0.6, "generator": "Overpass API 0.7.62.7 375dc00a", "osm3s": {"timestamp_osm_base": "2025-08-12T02:45:58Z", "copyright": "The data included in this document is from www.openstreetmap.org. The data is made available under ODbL."}, "elements": [{"type": "node", "id": 12487353400, "lat": 8.6332775, "lon": -76.0866114, "tags": {"addr:city": "Monter\u00eda", "addr:state": "C\u00f3rdoba", "amenity": "school", "name": "Escuela Rural Mixta La Voragine", "operator:type": "private", "phone": "824923", "source": "DANE"}}, {"type": "node", "id": 12487371282, "lat": 8.907222, "lon": -76.06, "tags": {"addr:city": "Monter\u00eda", "addr:state": "C\u00f3rdoba", "amenity": "school", "name": "Escuela Rur Mix Liborio Vargas", "operator:type": "public", "phone": "7905567", "source": "DANE"}}, {"type": "node", "id": 12487371286, "lat": 8.9198912, "lon": -76.1257365, "tags": {"addr:city": "Monter\u00eda", "addr:state": "C\u00f3rdoba", "amenity": "school", "name": "Escuela Rural Mixta Morindo Nva Esperanza", "operator:type": "public", "source": "DANE"}}, {"type": "node", "id": 12487371294, "lat": 8.8832317, "lon": -75.9848804, "tags": {"addr:city": "Monter\u00eda", "addr:state": "C\u00f3rdoba", "amenity": "school", "name": "Escuela Rural Mixta El Divino Ni\u00f1o", "operator:type": "public", "source": "DANE"}}, {"type": "node", "id": 12487371296, "lat": 8.7885671, "lon": -76.0862097, "tags": {"addr:city": "Monter\u00eda", "addr:state": "C\u00f3rdoba", "amenity": "school", "name": "Escuela Rural Mixta San Luis", "operator:type": "public", "source": "DANE"}}, {"type": "node", "id": 12487371297, "lat": 8.8999355, "lon": -76.120938, "tags": {"addr:city": "Monter\u00eda", "addr:state": "C\u00f3rdoba", "amenity": "school", "name": "Escuela Rural Mixta Morindo Santa Fe", "operator:type": "public", "source": "DANE"}}, {"type": "node", "id": 12487371298, "lat": 8.9112141, "lon": -76.0242843, "tags": {"addr:city": "Monter\u00eda", "addr:state": "C\u00f3rdoba", "amenity": "school", "name": "Escuela Rural Mixta Marralu Abajo", "operator:type": "public", "source": "DANE"}}, {"type": "node", "id": 12487371302, "lat": 8.8499073, "lon": -76.0966853, "tags": {"addr:city": "Monter\u00eda", "addr:state": "C\u00f3rdoba", "amenity": "school", "name": "Escuela Rural Mixta La Balastera", "operator:type": "public", "source": "DANE"}}, {"type": "node", "id": 12487371308, "lat": 8.6205474, "lon": -76.1432426, "tags": {"addr:city": "Monter\u00eda", "addr:state": "C\u00f3rdoba", "amenity": "school", "name": "Escuela Rural Mixta La Esperanza", "operator:type": "public", "source": "DANE"}}, {"type": "node", "id": 12487371314, "lat": 8.8902273, "lon": -76.058834, "tags": {"addr:city": "Monter\u00eda", "addr:state": "C\u00f3rdoba", "amenity": "school", "name": "Escuela Nva Eligio Mogrovejo", "operator:type": "public", "phone": "7905949", "source": "DANE"}}, {"type": "node", "id": 12487371315, "lat": 8.8484618, "lon": -76.036943, "tags": {"addr:city": "Monter\u00eda", "addr:state": "C\u00f3rdoba", "amenity": "school", "name": "Institucion Educativa Rafael Nu\u00f1ez", "operator:type": "public", "phone": "7905650", "source": "DANE"}}, {"type": "node", "id": 12487371316, "lat": 8.7908513, "lon": -76.0485191, "tags": {"addr:city": "Monter\u00eda", "addr:state": "C\u00f3rdoba", "amenity": "school", "name": "Escuela Rural Mixta De San Felipe", "operator:type": "public", "source": "DANE"}}, {"type": "node", "id": 12487371344, "lat": 8.8820753, "lon": -76.1574516, "tags": {"addr:city": "Los C\u00f3rdobas", "addr:state": "C\u00f3rdoba", "amenity": "school", "name": "Institucion Educativa Ieantonio Nari\u00f1o", "operator:type": "public", "phone": "7604020", "source": "DANE"}}, {"type": "node", "id": 12487371347, "lat": 8.9220645, "lon": -76.0983807, "tags": {"addr:city": "Monter\u00eda", "addr:state": "C\u00f3rdoba", "amenity": "school", "name": "Centro Educativo Cent Doc Camilo Torres", "operator:type": "public", "source": "DANE"}}, {"type": "node", "id": 12487371349, "lat": 8.9140695, "lon": -76.0661152, "tags": {"addr:city": "Monter\u00eda", "addr:state": "C\u00f3rdoba", "amenity": "school", "name": "Institucion Educativa Santa Clara De Asis", "operator:type": "public", "phone": "7922344", "source": "DANE"}}, {"type": "node", "id": 12487371358, "lat": 8.7442486, "lon": -76.0475191, "tags": {"addr:city": "Monter\u00eda", "addr:state": "C\u00f3rdoba", "amenity": "school", "name": "Escuela Rural Mixta Nvo Paraiso", "operator:type": "public", "source": "DANE"}}, {"type": "node", "id": 12487371359, "lat": 8.9397677, "lon": -76.0314226, "tags": {"addr:city": "Monter\u00eda", "addr:state": "C\u00f3rdoba", "amenity": "school", "name": "Escuela Rur Mix Cerro De Marralu", "operator:type": "public", "phone": "7905831", "source": "DANE"}}, {"type": "node", "id": 12487371362, "lat": 8.8749511, "lon": -76.0496969, "tags": {"addr:city": "Monter\u00eda", "addr:state": "C\u00f3rdoba", "amenity": "school", "name": "Escuela Rural Mixta De Hueso", "operator:type": "public", "source": "DANE"}}, {"type": "node", "id": 12487371364, "lat": 8.8044143, "lon": -76.0792141, "tags": {"addr:city": "Monter\u00eda", "addr:state": "C\u00f3rdoba", "amenity": "school", "name": "Escuela Rural Mixta La Lucha", "operator:type": "public", "source": "DANE"}}, {"type": "node", "id": 12487371369, "lat": 8.7032922, "lon": -76.0108992, "tags": {"addr:city": "Monter\u00eda", "addr:state": "C\u00f3rdoba", "amenity": "school", "name": "Escuela Nva De Martinica", "operator:type": "public", "phone": "7841935", "source": "DANE"}}, {"type": "node", "id": 12487371384, "lat": 8.8089731, "lon": -76.1489249, "tags": {"addr:city": "Los C\u00f3rdobas", "addr:state": "C\u00f3rdoba", "amenity": "school", "name": "Escuela Rur Mix La Apoderancia", "operator:type": "public", "source": "DANE"}}, {"type": "node", "id": 12487371410, "lat": 8.8169778, "lon": -76.0440933, "tags": {"addr:city": "Monter\u00eda", "addr:state": "C\u00f3rdoba", "amenity": "school", "name": "Escuela Rural Mixta Sta Teresita", "operator:type": "public", "source": "DANE"}}, {"type": "node", "id": 12487371413, "lat": 8.90636, "lon": -76.0618322, "tags": {"addr:city": "Monter\u00eda", "addr:state": "C\u00f3rdoba", "amenity": "school", "name": "Escuela Rur Mix Ana Rodriguez De Vidal", "operator:type": "public", "phone": "7905949", "source": "DANE"}}, {"type": "node", "id": 12487371420, "lat": 8.6104148, "lon": -76.168818, "tags": {"addr:city": "Monter\u00eda", "addr:state": "C\u00f3rdoba", "amenity": "school", "name": "Colegio De Bto Mix Pueblo Bajo", "operator:type": "public", "source": "DANE"}}, {"type": "node", "id": 12487371424, "lat": 8.6307791, "lon": -76.1208756, "tags": {"addr:city": "Monter\u00eda", "addr:state": "C\u00f3rdoba", "amenity": "school", "name": "Escuela Rural Mixta America", "operator:type": "public", "phone": "824299", "source": "DANE"}}, {"type": "node", "id": 12487371428, "lat": 8.671913, "lon": -76.0315708, "tags": {"addr:city": "Monter\u00eda", "addr:state": "C\u00f3rdoba", "amenity": "school", "name": "Institucion Educativa Leticia", "operator:type": "public", "phone": "7841935", "source": "DANE"}}, {"type": "node", "id": 12487371431, "lat": 8.908611, "lon": -76.060833, "tags": {"addr:city": "Monter\u00eda", "addr:state": "C\u00f3rdoba", "amenity": "school", "name": "Escuela Rural Mixta La \u00d1eca", "operator:type": "public", "phone": "7905949", "source": "DANE"}}, {"type": "node", "id": 12487371433, "lat": 8.8204042, "lon": -75.9952667, "tags": {"addr:city": "Monter\u00eda", "addr:state": "C\u00f3rdoba", "amenity": "school", "name": "Escuela Rural Mixta De Los Cedros", "operator:type": "public", "source": "DANE"}}, {"type": "node", "id": 12487371472, "lat": 8.8656237, "lon": -76.0955253, "tags": {"addr:city": "Monter\u00eda", "addr:state": "C\u00f3rdoba", "amenity": "school", "name": "Escuela Rural Mixta El Tigre Arriba", "operator:type": "public", "source": "DANE"}}, {"type": "node", "id": 12487371490, "lat": 8.8118382, "lon": -76.0810701, "tags": {"addr:city": "Monter\u00eda", "addr:state": "C\u00f3rdoba", "amenity": "school", "name": "Escuela Rural Mixta El Tigre", "operator:type": "public", "source": "DANE"}}, {"type": "node", "id": 12487371494, "lat": 8.8736662, "lon": -76.0786787, "tags": {"addr:city": "Monter\u00eda", "addr:state": "C\u00f3rdoba", "amenity": "school", "name": "Escuela Rural Mixta De Cucharal", "operator:type": "public", "source": "DANE"}}, {"type": "node", "id": 12487371499, "lat": 8.844964, "lon": -76.1143112, "tags": {"addr:city": "Monter\u00eda", "addr:state": "C\u00f3rdoba", "amenity": "school", "name": "Escuela Rural Mixta Aguas Vivas", "operator:type": "public", "source": "DANE"}}, {"type": "node", "id": 12487371508, "lat": 8.6686125, "lon": -76.1092163, "tags": {"addr:city": "Monter\u00eda", "addr:state": "C\u00f3rdoba", "amenity": "school", "name": "Escuela Rural Mixta Tenerife", "operator:type": "public", "phone": "7823999", "source": "DANE"}}, {"type": "node", "id": 12487371542, "lat": 8.6872308, "lon": -76.0834728, "tags": {"addr:city": "Monter\u00eda", "addr:state": "C\u00f3rdoba", "amenity": "school", "name": "Escuela Rural Mixta Palmito Picao", "operator:type": "public", "phone": "7841935", "source": "DANE"}}, {"type": "node", "id": 12487371543, "lat": 8.9159255, "lon": -76.0845322, "tags": {"addr:city": "Monter\u00eda", "addr:state": "C\u00f3rdoba", "amenity": "school", "name": "Escuela Rural Mixta Los Andes", "operator:type": "public", "source": "DANE"}}, {"type": "node", "id": 12487371544, "lat": 8.613647, "lon": -76.101483, "tags": {"addr:city": "Monter\u00eda", "addr:state": "C\u00f3rdoba", "amenity": "school", "name": "Escuela Rural Mixta 10 De Febrero", "operator:type": "public", "source": "DANE"}}, {"type": "node", "id": 12487371737, "lat": 8.9065487, "lon": -76.0045909, "tags": {"addr:city": "Ceret\u00e9", "addr:state": "C\u00f3rdoba", "amenity": "school", "name": "Escuela Rural Mixta De Venezuela", "operator:type": "public", "phone": "7640094", "source": "DANE"}}, {"type": "node", "id": 12487371747, "lat": 8.820031, "lon": -76.194203, "tags": {"addr:city": "Canalete", "addr:state": "C\u00f3rdoba", "amenity": "school", "name": "Escuela Nva Cerro Frontera", "operator:type": "public", "source": "DANE"}}, {"type": "node", "id": 12487371748, "lat": 8.727722, "lon": -76.1776811, "tags": {"addr:city": "Canalete", "addr:state": "C\u00f3rdoba", "amenity": "school", "name": "Escuela Rur Mix La Estrella", "operator:type": "public", "source": "DANE"}}, {"type": "node", "id": 12487371749, "lat": 8.776496, "lon": -76.154555, "tags": {"addr:city": "Canalete", "addr:state": "C\u00f3rdoba", "amenity": "school", "name": "Escuela Rur La Palma", "operator:type": "public", "source": "DANE"}}, {"type": "node", "id": 12487371750, "lat": 8.690185, "lon": -76.186784, "tags": {"addr:city": "Canalete", "addr:state": "C\u00f3rdoba", "amenity": "school", "name": "Escuela Nva Jose Antonio Galan", "operator:type": "public", "source": "DANE"}}, {"type": "node", "id": 12487371751, "lat": 8.7255726, "lon": -76.1847494, "tags": {"addr:city": "Canalete", "addr:state": "C\u00f3rdoba", "amenity": "school", "name": "Escuela Rur Sta Isabel Del Cerro", "operator:type": "public", "source": "DANE"}}, {"type": "node", "id": 12487371752, "lat": 8.7460894, "lon": -76.129565, "tags": {"addr:city": "Canalete", "addr:state": "C\u00f3rdoba", "amenity": "school", "name": "Centro Educativo Buenos Aires Las Pavas", "operator:type": "public", "source": "DANE"}}, {"type": "node", "id": 12487371754, "lat": 8.650693, "lon": -76.1763036, "tags": {"addr:city": "Canalete", "addr:state": "C\u00f3rdoba", "amenity": "school", "name": "Escuela Nva Cocao", "operator:type": "public", "source": "DANE"}}, {"type": "node", "id": 12487371755, "lat": 8.7405173, "lon": -76.2013051, "tags": {"addr:city": "Canalete", "addr:state": "C\u00f3rdoba", "amenity": "school", "name": "Escuela Rural Mixta Nvo Jerico", "operator:type": "public", "source": "DANE"}}, {"type": "node", "id": 12487371756, "lat": 8.7034653, "lon": -76.1933789, "tags": {"addr:city": "Canalete", "addr:state": "C\u00f3rdoba", "amenity": "school", "name": "Escuela Nva Boca Alreves", "operator:type": "public", "source": "DANE"}}, {"type": "node", "id": 12487371757, "lat": 8.6544023, "lon": -76.2269759, "tags": {"addr:city": "Canalete", "addr:state": "C\u00f3rdoba", "amenity": "school", "name": "Escuela Nva Juan Tauth", "operator:type": "public", "source": "DANE"}}, {"type": "node", "id": 12487371760, "lat": 8.743084, "lon": -76.197931, "tags": {"addr:city": "Canalete", "addr:state": "C\u00f3rdoba", "amenity": "school", "name": "Escuela Nva Los Volcanes", "operator:type": "public", "source": "DANE"}}, {"type": "node", "id": 12487371761, "lat": 8.6911437, "lon": -76.2062284, "tags": {"addr:city": "Canalete", "addr:state": "C\u00f3rdoba", "amenity": "school", "name": "Escuela Nva Canalete La Gloria", "operator:type": "public", "source": "DANE"}}, {"type": "node", "id": 12487371763, "lat": 8.7213627, "lon": -76.1606163, "tags": {"addr:city": "Canalete", "addr:state": "C\u00f3rdoba", "amenity": "school", "name": "Escuela Rural Mixta El Tomate", "operator:type": "public", "source": "DANE"}}, {"type": "node", "id": 12487371764, "lat": 8.6902988, "lon": -76.2581564, "tags": {"addr:city": "Canalete", "addr:state": "C\u00f3rdoba", "amenity": "school", "name": "Escuela Nva El Limon", "operator:type": "public", "source": "DANE"}}, {"type": "node", "id": 12487371765, "lat": 8.6702209, "lon": -76.2067029, "tags": {"addr:city": "Canalete", "addr:state": "C\u00f3rdoba", "amenity": "school", "name": "Institucion Educativa Sra Del Carmen De Popayan", "operator:type": "public", "source": "DANE"}}, {"type": "node", "id": 12487371767, "lat": 8.7878003, "lon": -76.1489196, "tags": {"addr:city": "Canalete", "addr:state": "C\u00f3rdoba", "amenity": "school", "name": "Centro Educativo Quebrada De Urango", "operator:type": "public", "phone": "5204847", "source": "DANE"}}, {"type": "node", "id": 12487371768, "lat": 8.7456332, "lon": -76.1811511, "tags": {"addr:city": "Canalete", "addr:state": "C\u00f3rdoba", "amenity": "school", "name": "Centro Educativo Lorenza Abajo", "operator:type": "public", "source": "DANE"}}, {"type": "node", "id": 12487371774, "lat": 8.7585775, "lon": -76.1819125, "tags": {"addr:city": "Canalete", "addr:state": "C\u00f3rdoba", "amenity": "school", "name": "Centro Educativo El Guineo", "operator:type": "public", "source": "DANE"}}, {"type": "node", "id": 12487371777, "lat": 8.6662377, "lon": -76.2590273, "tags": {"addr:city": "Canalete", "addr:state": "C\u00f3rdoba", "amenity": "school", "name": "Escuela Nva La Caba\u00f1a", "operator:type": "public", "source": "DANE"}}, {"type": "node", "id": 12487371906, "lat": 8.7468789, "lon": -75.9936963, "tags": {"addr:city": "Monter\u00eda", "addr:state": "C\u00f3rdoba", "amenity": "school", "name": "Escuela Ca\u00f1o Viejo La Mora", "operator:type": "public", "phone": "7841935", "source": "DANE"}}, {"type": "node", "id": 12487371920, "lat": 8.9130225, "lon": -76.1416869, "tags": {"addr:city": "Monter\u00eda", "addr:state": "C\u00f3rdoba", "amenity": "school", "name": "Escuela Rur Mix Morindo Dos Bocas", "operator:type": "public", "source": "DANE"}}, {"type": "node", "id": 12487371922, "lat": 8.6115055, "lon": -76.207369, "tags": {"addr:city": "Monter\u00eda", "addr:state": "C\u00f3rdoba", "amenity": "school", "name": "Otra sigla Erm San Josecanaletico", "operator:type": "public", "source": "DANE"}}, {"type": "node", "id": 12487375589, "lat": 8.8448245, "lon": -76.1534315, "tags": {"addr:city": "Los C\u00f3rdobas", "addr:state": "C\u00f3rdoba", "amenity": "school", "name": "Escuela Rural Mixta La Apartada A Canalete", "operator:type": "public", "source": "DANE"}}]}