{"version": 0.6, "generator": "Overpass API 0.7.62.7 375dc00a", "osm3s": {"timestamp_osm_base": "2025-08-12T02:45:58Z", "copyright": "The data included in this document is from www.openstreetmap.org. The data is made available under ODbL."}, "elements": [{"type": "node", "id": 463515522, "lat": 8.7404566, "lon": -75.8879192}, {"type": "node", "id": 463515523, "lat": 8.7400213, "lon": -75.8880683}, {"type": "node", "id": 463515524, "lat": 8.7397814, "lon": -75.8881157}, {"type": "node", "id": 470320227, "lat": 8.7483979, "lon": -75.8734529}, {"type": "node", "id": 473177979, "lat": 8.740677, "lon": -75.8891418}, {"type": "node", "id": 473177980, "lat": 8.7412065, "lon": -75.8885905}, {"type": "node", "id": 473177991, "lat": 8.7407754, "lon": -75.8882102}, {"type": "node", "id": 473178541, "lat": 8.7359538, "lon": -75.8982835}, {"type": "node", "id": 473178553, "lat": 8.7350607, "lon": -75.8979091}, {"type": "node", "id": 483006731, "lat": 8.7358031, "lon": -75.8991699}, {"type": "node", "id": 483006732, "lat": 8.7350518, "lon": -75.8988559}, {"type": "node", "id": 483006737, "lat": 8.7350461, "lon": -75.8985662}, {"type": "node", "id": 506575519, "lat": 8.7459377, "lon": -75.8720547}, {"type": "node", "id": 506575573, "lat": 8.7429845, "lon": -75.8727649}, {"type": "node", "id": 506575727, "lat": 8.751478, "lon": -75.8732546}, {"type": "node", "id": 506575728, "lat": 8.7487428, "lon": -75.8723268}, {"type": "node", "id": 506575730, "lat": 8.7484178, "lon": -75.8722727}, {"type": "node", "id": 506575732, "lat": 8.7480533, "lon": -75.8727729}, {"type": "node", "id": 506575762, "lat": 8.7490853, "lon": -75.8724484}, {"type": "node", "id": 506575811, "lat": 8.7503099, "lon": -75.8728444}, {"type": "node", "id": 506575813, "lat": 8.750861, "lon": -75.8730335}, {"type": "node", "id": 507093509, "lat": 8.7736521, "lon": -75.8646821}, {"type": "node", "id": 507093510, "lat": 8.7751491, "lon": -75.8638097}, {"type": "node", "id": 507093513, "lat": 8.7729083, "lon": -75.8634001}, {"type": "node", "id": 507093514, "lat": 8.7743614, "lon": -75.8624812}, {"type": "node", "id": 3250563252, "lat": 8.7465771, "lon": -75.9006362}, {"type": "node", "id": 3250563253, "lat": 8.7466089, "lon": -75.9000997}, {"type": "node", "id": 3250563254, "lat": 8.7449441, "lon": -75.8999925}, {"type": "node", "id": 3250563255, "lat": 8.7449282, "lon": -75.9002821}, {"type": "node", "id": 3570302314, "lat": 8.7296514, "lon": -75.8817105}, {"type": "node", "id": 3570302315, "lat": 8.7290098, "lon": -75.8798057}, {"type": "node", "id": 3570302316, "lat": 8.7274973, "lon": -75.8803267}, {"type": "node", "id": 3570302317, "lat": 8.7281917, "lon": -75.8822221}, {"type": "node", "id": 3605719328, "lat": 8.7322675, "lon": -75.8771487}, {"type": "node", "id": 3605719329, "lat": 8.7318198, "lon": -75.8768043}, {"type": "node", "id": 3605719330, "lat": 8.7317888, "lon": -75.8768616}, {"type": "node", "id": 3605719331, "lat": 8.7320205, "lon": -75.8774106}, {"type": "node", "id": 3861672191, "lat": 8.737621, "lon": -75.8877449, "tags": {"addr:city": "Monte\u00eda", "addr:postcode": "230004", "amenity": "school", "name": "Instituci\u00f3n Educativa Cristobal Col\u00f3n"}}, {"type": "node", "id": 3861688835, "lat": 8.7364707, "lon": -75.8911552, "tags": {"addr:city": "Monter\u00eda", "addr:postcode": "230004", "amenity": "school", "designation": "Escuela P\u00fablica", "name": "Instituci\u00f3n Educativa General Santander"}}, {"type": "node", "id": 4489265786, "lat": 8.7346152, "lon": -75.88509, "tags": {"amenity": "school", "name": "educativa maria goretti"}}, {"type": "node", "id": 4554205589, "lat": 8.7534541, "lon": -75.866108, "tags": {"amenity": "school", "name": "San Miguel abajo", "name:es": "San Miguel abajo"}}, {"type": "node", "id": 4575876988, "lat": 8.7440354, "lon": -75.8899122, "tags": {"amenity": "school", "name": "Colegio Cecilia de Llleras Primaria"}}, {"type": "node", "id": 4575889738, "lat": 8.7431553, "lon": -75.892868, "tags": {"amenity": "school", "name": "Colegio Cecilia de Lleras"}}, {"type": "node", "id": 5121006221, "lat": 8.7529026, "lon": -75.8889413, "tags": {"amenity": "school", "name": "Universidad UNICJAO", "name:es": "Universidad UNICJAO"}}, {"type": "node", "id": 5270661350, "lat": 8.7694535, "lon": -75.8639134}, {"type": "node", "id": 5270661384, "lat": 8.7436025, "lon": -75.873728}, {"type": "node", "id": 5270661385, "lat": 8.7432231, "lon": -75.8712843}, {"type": "node", "id": 5270661386, "lat": 8.7440897, "lon": -75.8718671}, {"type": "node", "id": 5270661387, "lat": 8.7444576, "lon": -75.8711825}, {"type": "node", "id": 5273022403, "lat": 8.7603362, "lon": -75.8666027}, {"type": "node", "id": 5273022404, "lat": 8.7602418, "lon": -75.8667038}, {"type": "node", "id": 5273022405, "lat": 8.7599364, "lon": -75.8663709}, {"type": "node", "id": 5273022406, "lat": 8.760035, "lon": -75.8662782}, {"type": "node", "id": 5273022407, "lat": 8.760053, "lon": -75.8662993}, {"type": "node", "id": 5273022408, "lat": 8.7600794, "lon": -75.8662726}, {"type": "node", "id": 5273022409, "lat": 8.7600614, "lon": -75.866253}, {"type": "node", "id": 5273022410, "lat": 8.7601516, "lon": -75.8661659}, {"type": "node", "id": 5273022411, "lat": 8.7604528, "lon": -75.8664889}, {"type": "node", "id": 5273022412, "lat": 8.7603681, "lon": -75.8665704}, {"type": "node", "id": 5273022413, "lat": 8.7602724, "lon": -75.8664693}, {"type": "node", "id": 5273022414, "lat": 8.7602432, "lon": -75.8664974}, {"type": "node", "id": 5949201588, "lat": 8.7732526, "lon": -75.8639596}, {"type": "node", "id": 6421417085, "lat": 8.7501381, "lon": -75.893355, "tags": {"amenity": "school", "name": "Universidad Santo Tom\u00e1s"}}, {"type": "node", "id": 7650055055, "lat": 8.7431064, "lon": -75.871979}, {"type": "node", "id": 7856933109, "lat": 8.7626178, "lon": -75.8967617, "tags": {"addr:city": "monteria", "addr:street": "Carrera 13W", "amenity": "school", "grades": "1 to 5", "name": "Institucion educativa el dorado"}}, {"type": "node", "id": 8449672858, "lat": 8.7393154, "lon": -75.8881774}, {"type": "node", "id": 8507757438, "lat": 8.7814623, "lon": -75.867125}, {"type": "node", "id": 8507757439, "lat": 8.7821198, "lon": -75.8669043}, {"type": "node", "id": 8507757440, "lat": 8.7823106, "lon": -75.8673817}, {"type": "node", "id": 8507757441, "lat": 8.7817116, "lon": -75.8676446}, {"type": "node", "id": 9359933895, "lat": 8.7687963, "lon": -75.8644182}, {"type": "node", "id": 9359933896, "lat": 8.76829, "lon": -75.8637433}, {"type": "node", "id": 9359933897, "lat": 8.767708, "lon": -75.8629675}, {"type": "node", "id": 9359933898, "lat": 8.7683652, "lon": -75.8624628}, {"type": "node", "id": 9379056690, "lat": 8.7386835, "lon": -75.8996041}, {"type": "node", "id": 9379056691, "lat": 8.7383223, "lon": -75.9006305}, {"type": "node", "id": 9379056692, "lat": 8.741058, "lon": -75.9018539}, {"type": "node", "id": 9379056693, "lat": 8.7412875, "lon": -75.9008822}, {"type": "node", "id": 9387411209, "lat": 8.7394564, "lon": -75.8882932}, {"type": "node", "id": 9391338713, "lat": 8.7443938, "lon": -75.874143}, {"type": "node", "id": 9391343531, "lat": 8.7506535, "lon": -75.8748689}, {"type": "node", "id": 9391343532, "lat": 8.7504348, "lon": -75.8750348}, {"type": "node", "id": 9391343533, "lat": 8.7509607, "lon": -75.8745107}, {"type": "node", "id": 9391343534, "lat": 8.7502091, "lon": -75.8751593}, {"type": "node", "id": 9391343535, "lat": 8.7496853, "lon": -75.8754657}, {"type": "node", "id": 9391343536, "lat": 8.7511846, "lon": -75.8740381}, {"type": "node", "id": 9584122057, "lat": 8.7539102, "lon": -75.8889473, "tags": {"amenity": "school", "name": "Peque\u00f1os gigantes"}}, {"type": "node", "id": 9584127454, "lat": 8.7513373, "lon": -75.886602, "tags": {"amenity": "school", "name": "Juan Pablo II"}}, {"type": "node", "id": 9590103982, "lat": 8.8710596, "lon": -75.9597054, "tags": {"amenity": "school", "name": "Sincelejito"}}, {"type": "node", "id": 9785145256, "lat": 8.7355745, "lon": -75.8981245}, {"type": "node", "id": 11133239017, "lat": 8.7589222, "lon": -75.8807015, "tags": {"amenity": "school", "isced:level": "1;2;3", "name": "Liceo Pupo Jim\u00e9nez"}}, {"type": "node", "id": 11867518112, "lat": 8.7929221, "lon": -75.8575812}, {"type": "node", "id": 11867518113, "lat": 8.7914204, "lon": -75.8583193}, {"type": "node", "id": 11867518114, "lat": 8.790573, "lon": -75.8565542}, {"type": "node", "id": 11867518115, "lat": 8.7920748, "lon": -75.855816}, {"type": "node", "id": 11867518116, "lat": 8.792063, "lon": -75.8561131, "tags": {"addr:city": "Monter\u00eda", "amenity": "school", "name": "Instituci\u00f3n educativa Lorenzo Mar\u00eda Lleras (INEM)"}}, {"type": "node", "id": 11867518128, "lat": 8.7923006, "lon": -75.8562698}, {"type": "node", "id": 12487369330, "lat": 8.7519587, "lon": -75.9020295, "tags": {"addr:city": "Monter\u00eda", "addr:state": "C\u00f3rdoba", "amenity": "school", "name": "Colegio Artistico Sue\u00f1o Inf", "operator:type": "private", "phone": "7917965", "source": "DANE"}}, {"type": "node", "id": 12487369331, "lat": 8.7806031, "lon": -75.866927, "tags": {"addr:city": "Monter\u00eda", "addr:state": "C\u00f3rdoba", "amenity": "school", "name": "Centro Educativo Saint George Chool", "operator:type": "private", "phone": "7854810", "source": "DANE"}}, {"type": "node", "id": 12487369332, "lat": 8.7709335, "lon": -75.8670471, "tags": {"addr:city": "Monter\u00eda", "addr:state": "C\u00f3rdoba", "amenity": "school", "name": "Centro Educativo My Litlle Kingdom", "operator:type": "private", "phone": "7910188", "source": "DANE"}}, {"type": "node", "id": 12487369333, "lat": 8.7517927, "lon": -75.8738954, "tags": {"addr:city": "Monter\u00eda", "addr:state": "C\u00f3rdoba", "amenity": "school", "name": "Jardin Infantil Huellitas Del Saber", "operator:type": "private", "phone": "7921178", "source": "DANE"}}, {"type": "node", "id": 12487369334, "lat": 8.7567229, "lon": -75.8844372, "tags": {"addr:city": "Monter\u00eda", "addr:state": "C\u00f3rdoba", "amenity": "school", "name": "Institucion Tecn Colomboamericano", "operator:type": "private", "phone": "7902440", "source": "DANE"}}, {"type": "node", "id": 12487369335, "lat": 8.7481567, "lon": -75.8746203, "tags": {"addr:city": "Monter\u00eda", "addr:state": "C\u00f3rdoba", "amenity": "school", "name": "Fundacion Lideres Del Nvo Milenio", "operator:type": "private", "source": "DANE"}}, {"type": "node", "id": 12487369336, "lat": 8.7350054, "lon": -75.8897861, "tags": {"addr:city": "Monter\u00eda", "addr:state": "C\u00f3rdoba", "amenity": "school", "name": "Centro Educativo Mi Futuro", "operator:type": "private", "phone": "7866416", "source": "DANE"}}, {"type": "node", "id": 12487369337, "lat": 8.7341191, "lon": -75.88934, "tags": {"addr:city": "Monter\u00eda", "addr:state": "C\u00f3rdoba", "amenity": "school", "name": "Otra sigla Preesc Casita De Los Ni\u00f1os", "operator:type": "private", "source": "DANE"}}, {"type": "node", "id": 12487369338, "lat": 8.738938, "lon": -75.880749, "tags": {"addr:city": "Monter\u00eda", "addr:state": "C\u00f3rdoba", "amenity": "school", "name": "Centro Educativo Cent Doc Belen", "operator:type": "private", "phone": "7852430", "source": "DANE"}}, {"type": "node", "id": 12487369339, "lat": 8.7539614, "lon": -75.8853332, "tags": {"addr:city": "Monter\u00eda", "addr:state": "C\u00f3rdoba", "amenity": "school", "name": "Centro Educativo Cent De Estud Para El Aprend Y La Cap Cepac", "operator:type": "private", "phone": "7821332", "source": "DANE"}}, {"type": "node", "id": 12487369340, "lat": 8.7601703, "lon": -75.896106, "tags": {"addr:city": "Monter\u00eda", "addr:state": "C\u00f3rdoba", "amenity": "school", "name": "Liceo Los Angeles", "operator:type": "private", "phone": "7843172", "source": "DANE"}}, {"type": "node", "id": 12487369341, "lat": 8.7687615, "lon": -75.8673436, "tags": {"addr:city": "Monter\u00eda", "addr:state": "C\u00f3rdoba", "amenity": "school", "name": "Centro Educativo Gimn La Castellana", "operator:type": "private", "phone": "7852812", "source": "DANE"}}, {"type": "node", "id": 12487369342, "lat": 8.7613606, "lon": -75.8744033, "tags": {"addr:city": "Monter\u00eda", "addr:state": "C\u00f3rdoba", "amenity": "school", "name": "Otra sigla Gim Alborada", "operator:type": "private", "phone": "7820967", "source": "DANE"}}, {"type": "node", "id": 12487369343, "lat": 8.7295751, "lon": -75.8858255, "tags": {"addr:city": "Monter\u00eda", "addr:state": "C\u00f3rdoba", "amenity": "school", "name": "Gimnasio El Mundo Del Conocimiento", "operator:type": "private", "phone": "787964", "source": "DANE"}}, {"type": "node", "id": 12487369344, "lat": 8.7504861, "lon": -75.8951509, "tags": {"addr:city": "Monter\u00eda", "addr:state": "C\u00f3rdoba", "amenity": "school", "name": "Gimnasio La Rivera", "operator:type": "private", "phone": "7908621", "source": "DANE"}}, {"type": "node", "id": 12487369345, "lat": 8.7506005, "lon": -75.8872196, "tags": {"addr:city": "Monter\u00eda", "addr:state": "C\u00f3rdoba", "amenity": "school", "name": "Gimnasio Cordillera", "operator:type": "private", "phone": "7821292", "source": "DANE"}}, {"type": "node", "id": 12487369346, "lat": 8.759388, "lon": -75.879213, "tags": {"addr:city": "Monter\u00eda", "addr:state": "C\u00f3rdoba", "amenity": "school", "name": "Jardin Infantil Carrusel", "operator:type": "private", "phone": "7814967", "source": "DANE"}}, {"type": "node", "id": 12487369347, "lat": 8.7581899, "lon": -75.8938306, "tags": {"addr:city": "Monter\u00eda", "addr:state": "C\u00f3rdoba", "amenity": "school", "name": "Jardin Infantil Juguemos A Aprender", "operator:type": "private", "phone": "7840261", "source": "DANE"}}, {"type": "node", "id": 12487369348, "lat": 8.752801, "lon": -75.8859997, "tags": {"addr:city": "Monter\u00eda", "addr:state": "C\u00f3rdoba", "amenity": "school", "name": "Gimnasio Plaza Feliz", "operator:type": "private", "phone": "7816940", "source": "DANE"}}, {"type": "node", "id": 12487369349, "lat": 8.7490596, "lon": -75.9033727, "tags": {"addr:city": "Monter\u00eda", "addr:state": "C\u00f3rdoba", "amenity": "school", "name": "Centro Educativo Cent Doc Los Amigos", "operator:type": "private", "phone": "7920040", "source": "DANE"}}, {"type": "node", "id": 12487369350, "lat": 8.7464247, "lon": -75.8841661, "tags": {"addr:city": "Monter\u00eda", "addr:state": "C\u00f3rdoba", "amenity": "school", "name": "Otra sigla Gim Inf Mi Alegre Infancia", "operator:type": "private", "phone": "7831025", "source": "DANE"}}, {"type": "node", "id": 12487369351, "lat": 8.7677326, "lon": -75.8662923, "tags": {"addr:city": "Monter\u00eda", "addr:state": "C\u00f3rdoba", "amenity": "school", "name": "Centro Educativo Cent De Ense\u00f1anza Precoz Lic Valderrama", "operator:type": "private", "phone": "7851108", "source": "DANE"}}, {"type": "node", "id": 12487369352, "lat": 8.7421341, "lon": -75.8947878, "tags": {"addr:city": "Monter\u00eda", "addr:state": "C\u00f3rdoba", "amenity": "school", "name": "Colegio Militar Admirante Colon De Monteria", "operator:type": "private", "phone": "7832198", "source": "DANE"}}, {"type": "node", "id": 12487369353, "lat": 8.7470115, "lon": -75.8901089, "tags": {"addr:city": "Monter\u00eda", "addr:state": "C\u00f3rdoba", "amenity": "school", "name": "Gimnasio Serranias", "operator:type": "private", "phone": "7836531", "source": "DANE"}}, {"type": "node", "id": 12487369354, "lat": 8.7748162, "lon": -75.8619959, "tags": {"addr:city": "Monter\u00eda", "addr:state": "C\u00f3rdoba", "amenity": "school", "name": "Colegio Brit\u00e1nico De Monter\u00eda Ms Sas", "operator:type": "private", "phone": "850147", "source": "DANE"}}, {"type": "node", "id": 12487369355, "lat": 8.7350241, "lon": -75.8926363, "tags": {"addr:city": "Monter\u00eda", "addr:state": "C\u00f3rdoba", "amenity": "school", "name": "Institucion Pedag Del Sur", "operator:type": "private", "phone": "7838243", "source": "DANE"}}, {"type": "node", "id": 12487369356, "lat": 8.752189, "lon": -75.901765, "tags": {"addr:city": "Monter\u00eda", "addr:state": "C\u00f3rdoba", "amenity": "school", "name": "Liceo Maximo Mercado", "operator:type": "private", "phone": "7834520", "source": "DANE"}}, {"type": "node", "id": 12487369357, "lat": 8.7532391, "lon": -75.876652, "tags": {"addr:city": "Monter\u00eda", "addr:state": "C\u00f3rdoba", "amenity": "school", "name": "Liceo Monteria", "operator:type": "private", "phone": "7822284", "source": "DANE"}}, {"type": "node", "id": 12487369358, "lat": 8.7393957, "lon": -75.8873068, "tags": {"addr:city": "Monter\u00eda", "addr:state": "C\u00f3rdoba", "amenity": "school", "name": "Institucion Educativa Comfacor Jaime Exbrayat", "operator:type": "private", "phone": "7834111", "source": "DANE"}}, {"type": "node", "id": 12487369359, "lat": 8.7565929, "lon": -75.8813433, "tags": {"addr:city": "Monter\u00eda", "addr:state": "C\u00f3rdoba", "amenity": "school", "name": "Academia General Gustavo Rojas Pinilla", "operator:type": "private", "phone": "7826288", "source": "DANE"}}, {"type": "node", "id": 12487369444, "lat": 8.7573305, "lon": -75.9044576, "tags": {"addr:city": "Monter\u00eda", "addr:state": "C\u00f3rdoba", "amenity": "school", "name": "Jardin Infantil My Little Friends", "operator:type": "private", "phone": "3176990551", "source": "DANE"}}, {"type": "node", "id": 12487369445, "lat": 8.7529251, "lon": -75.8899747, "tags": {"addr:city": "Monter\u00eda", "addr:state": "C\u00f3rdoba", "amenity": "school", "name": "Institucion Educativa Atenas Sede Principal", "operator:type": "private", "phone": "3005013274", "source": "DANE"}}, {"type": "node", "id": 12487369446, "lat": 8.7623348, "lon": -75.8646984, "tags": {"addr:city": "Monter\u00eda", "addr:state": "C\u00f3rdoba", "amenity": "school", "name": "Otra sigla Grimm Brothers School", "operator:type": "private", "phone": "3006009141", "source": "DANE"}}, {"type": "node", "id": 12487369447, "lat": 8.7481986, "lon": -75.8568207, "tags": {"addr:city": "Monter\u00eda", "addr:state": "C\u00f3rdoba", "amenity": "school", "name": "Centro Educativo San Francisco", "operator:type": "private", "phone": "3145359204", "source": "DANE"}}, {"type": "node", "id": 12487369448, "lat": 8.7542017, "lon": -75.8751726, "tags": {"addr:city": "Monter\u00eda", "addr:state": "C\u00f3rdoba", "amenity": "school", "name": "Gimnasio Exploradores Del Saber", "operator:type": "private", "phone": "7865620", "source": "DANE"}}, {"type": "node", "id": 12487369449, "lat": 8.7458106, "lon": -75.8764067, "tags": {"addr:city": "Monter\u00eda", "addr:state": "C\u00f3rdoba", "amenity": "school", "name": "Otra sigla George Berkeley School", "operator:type": "private", "phone": "3233168175", "source": "DANE"}}, {"type": "node", "id": 12487369450, "lat": 8.7575783, "lon": -75.8839363, "tags": {"addr:city": "Monter\u00eda", "addr:state": "C\u00f3rdoba", "amenity": "school", "name": "Institucion Educativa Para J\u00f3venes Y Adultos Ideas", "operator:type": "private", "phone": "7815351", "source": "DANE"}}, {"type": "node", "id": 12487369451, "lat": 8.7596119, "lon": -75.8665944, "tags": {"addr:city": "Monter\u00eda", "addr:state": "C\u00f3rdoba", "amenity": "school", "name": "Colegio Biling\u00fce Monter\u00eda School", "operator:type": "private", "phone": "7894749", "source": "DANE"}}, {"type": "node", "id": 12487369452, "lat": 8.7415871, "lon": -75.8621208, "tags": {"addr:city": "Monter\u00eda", "addr:state": "C\u00f3rdoba", "amenity": "school", "name": "Centro Educativo Villa Nueva", "operator:type": "private", "phone": "7910380", "source": "DANE"}}, {"type": "node", "id": 12487369453, "lat": 8.7456911, "lon": -75.8575542, "tags": {"addr:city": "Monter\u00eda", "addr:state": "C\u00f3rdoba", "amenity": "school", "name": "Centro Educativo Gimnasio Santa Elena", "operator:type": "private", "phone": "3003828057", "source": "DANE"}}, {"type": "node", "id": 12487369454, "lat": 8.7435765, "lon": -75.9014575, "tags": {"addr:city": "Monter\u00eda", "addr:state": "C\u00f3rdoba", "amenity": "school", "name": "Colegio Cristiano Vencedores Por La Fe", "operator:type": "private", "phone": "3005981933", "source": "DANE"}}, {"type": "node", "id": 12487369455, "lat": 8.742719, "lon": -75.8901125, "tags": {"addr:city": "Monter\u00eda", "addr:state": "C\u00f3rdoba", "amenity": "school", "name": "Gimnasio Monterrey", "operator:type": "private", "phone": "7893031", "source": "DANE"}}, {"type": "node", "id": 12487369456, "lat": 8.7683591, "lon": -75.8674146, "tags": {"addr:city": "Monter\u00eda", "addr:state": "C\u00f3rdoba", "amenity": "school", "name": "Centro Educativo Cristiano Faro De Luz", "operator:type": "private", "phone": "7852423", "source": "DANE"}}, {"type": "node", "id": 12487369457, "lat": 8.7316405, "lon": -75.8808203, "tags": {"addr:city": "Monter\u00eda", "addr:state": "C\u00f3rdoba", "amenity": "school", "name": "Gimnasio De Marzo", "operator:type": "private", "phone": "7867237", "source": "DANE"}}, {"type": "node", "id": 12487369458, "lat": 8.7469076, "lon": -75.8844516, "tags": {"addr:city": "Monter\u00eda", "addr:state": "C\u00f3rdoba", "amenity": "school", "name": "Gimnasio Moderno Del Sine", "operator:type": "private", "phone": "7831025", "source": "DANE"}}, {"type": "node", "id": 12487369459, "lat": 8.7519444, "lon": -75.9097222, "tags": {"addr:city": "Monter\u00eda", "addr:state": "C\u00f3rdoba", "amenity": "school", "name": "Escuela Luz Del Sine", "operator:type": "private", "phone": "7865086", "source": "DANE"}}, {"type": "node", "id": 12487369460, "lat": 8.7482543, "lon": -75.8821703, "tags": {"addr:city": "Monter\u00eda", "addr:state": "C\u00f3rdoba", "amenity": "school", "name": "Gimnasio Arcoiris", "operator:type": "private", "phone": "3116978387", "source": "DANE"}}, {"type": "node", "id": 12487369461, "lat": 8.7422915, "lon": -75.889982, "tags": {"addr:city": "Monter\u00eda", "addr:state": "C\u00f3rdoba", "amenity": "school", "name": "Centro Educativo Cent De Formacion Integ Maria Montessori", "operator:type": "private", "phone": "3205310709", "source": "DANE"}}, {"type": "node", "id": 12487371171, "lat": 8.751218, "lon": -75.776698, "tags": {"addr:city": "San Carlos", "addr:state": "C\u00f3rdoba", "amenity": "school", "name": "Escuela Rural Mixta Las Tinas", "operator:type": "public", "source": "DANE"}}, {"type": "node", "id": 12487371173, "lat": 8.681857, "lon": -75.752183, "tags": {"addr:city": "San Carlos", "addr:state": "C\u00f3rdoba", "amenity": "school", "name": "Institucion Educ San Jose", "operator:type": "public", "phone": "7924559", "source": "DANE"}}, {"type": "node", "id": 12487371179, "lat": 8.771245, "lon": -75.793571, "tags": {"addr:city": "San Carlos", "addr:state": "C\u00f3rdoba", "amenity": "school", "name": "Centro Educativo Cent Doc Rur Mix El Campano", "operator:type": "public", "source": "DANE"}}, {"type": "node", "id": 12487371226, "lat": 8.681464, "lon": -75.751073, "tags": {"addr:city": "San Carlos", "addr:state": "C\u00f3rdoba", "amenity": "school", "name": "Escuela Rural Mixta Los Ca\u00f1os", "operator:type": "public", "source": "DANE"}}, {"type": "node", "id": 12487371234, "lat": 8.636705, "lon": -75.736023, "tags": {"addr:city": "San Carlos", "addr:state": "C\u00f3rdoba", "amenity": "school", "name": "Centro Educativo Cienaguita", "operator:type": "public", "source": "DANE"}}, {"type": "node", "id": 12487371303, "lat": 8.6717356, "lon": -75.9016827, "tags": {"addr:city": "Monter\u00eda", "addr:state": "C\u00f3rdoba", "amenity": "school", "name": "Escuela Nva Medellin Cordoba", "operator:type": "public", "source": "DANE"}}, {"type": "node", "id": 12487371305, "lat": 8.8326503, "lon": -75.8688341, "tags": {"addr:city": "Monter\u00eda", "addr:state": "C\u00f3rdoba", "amenity": "school", "name": "Colegio Mpal De Bto De Los Garzones", "operator:type": "public", "source": "DANE"}}, {"type": "node", "id": 12487371306, "lat": 8.626615, "lon": -75.8825726, "tags": {"addr:city": "Monter\u00eda", "addr:state": "C\u00f3rdoba", "amenity": "school", "name": "Escuela Rural Mixta San Jeronimo", "operator:type": "public", "source": "DANE"}}, {"type": "node", "id": 12487371309, "lat": 8.7820927, "lon": -75.8046779, "tags": {"addr:city": "Monter\u00eda", "addr:state": "C\u00f3rdoba", "amenity": "school", "name": "Centro Educativo El Sabanal", "operator:type": "public", "phone": "7906262", "source": "DANE"}}, {"type": "node", "id": 12487371312, "lat": 8.699723, "lon": -75.9473974, "tags": {"addr:city": "Monter\u00eda", "addr:state": "C\u00f3rdoba", "amenity": "school", "name": "Institucion Educativa San Jose De Jaraquiel", "operator:type": "public", "phone": "823799", "source": "DANE"}}, {"type": "node", "id": 12487371352, "lat": 8.8446903, "lon": -75.9178986, "tags": {"addr:city": "Monter\u00eda", "addr:state": "C\u00f3rdoba", "amenity": "school", "name": "Escuela Rural Mixta Lusitania", "operator:type": "public", "source": "DANE"}}, {"type": "node", "id": 12487371354, "lat": 8.725, "lon": -75.819444, "tags": {"addr:city": "Monter\u00eda", "addr:state": "C\u00f3rdoba", "amenity": "school", "name": "Escuela Rur Mix Ca\u00f1o Viejo Las Lamas", "operator:type": "public", "source": "DANE"}}, {"type": "node", "id": 12487371355, "lat": 8.68744, "lon": -75.8924028, "tags": {"addr:city": "Monter\u00eda", "addr:state": "C\u00f3rdoba", "amenity": "school", "name": "Escuela Rural Mixta San Nicolas", "operator:type": "public", "source": "DANE"}}, {"type": "node", "id": 12487371357, "lat": 8.6777778, "lon": -75.8, "tags": {"addr:city": "Monter\u00eda", "addr:state": "C\u00f3rdoba", "amenity": "school", "name": "Escuela Rural Mixta Casa Blanca", "operator:type": "public", "source": "DANE"}}, {"type": "node", "id": 12487371361, "lat": 8.7675, "lon": -75.8913889, "tags": {"addr:city": "Monter\u00eda", "addr:state": "C\u00f3rdoba", "amenity": "school", "name": "Escuela Rural Mixta El Guasimo", "operator:type": "public", "source": "DANE"}}, {"type": "node", "id": 12487371366, "lat": 8.7452798, "lon": -75.7950558, "tags": {"addr:city": "Monter\u00eda", "addr:state": "C\u00f3rdoba", "amenity": "school", "name": "Escuela Rural Mixta Palma De Vino", "operator:type": "public", "source": "DANE"}}, {"type": "node", "id": 12487371368, "lat": 8.693579, "lon": -75.8290377, "tags": {"addr:city": "Monter\u00eda", "addr:state": "C\u00f3rdoba", "amenity": "school", "name": "Escuela Rural Mixta De Las Pulgas", "operator:type": "public", "source": "DANE"}}, {"type": "node", "id": 12487371370, "lat": 8.6625449, "lon": -75.8340316, "tags": {"addr:city": "Monter\u00eda", "addr:state": "C\u00f3rdoba", "amenity": "school", "name": "Escuela Rural Mixta Chispas Palmitas", "operator:type": "public", "source": "DANE"}}, {"type": "node", "id": 12487371375, "lat": 8.8724646, "lon": -75.9590037, "tags": {"addr:city": "Monter\u00eda", "addr:state": "C\u00f3rdoba", "amenity": "school", "name": "Escuela Rural Mixta Sincelejito", "operator:type": "public", "source": "DANE"}}, {"type": "node", "id": 12487371376, "lat": 8.7997222, "lon": -75.8527778, "tags": {"addr:city": "Monter\u00eda", "addr:state": "C\u00f3rdoba", "amenity": "school", "name": "Institucion Educativa Nuestra Se\u00f1ora De Fatima", "operator:type": "public", "phone": "7860279", "source": "DANE"}}, {"type": "node", "id": 12487371415, "lat": 8.809167, "lon": -75.92, "tags": {"addr:city": "Monter\u00eda", "addr:state": "C\u00f3rdoba", "amenity": "school", "name": "Escuela Nva El Floral", "operator:type": "public", "source": "DANE"}}, {"type": "node", "id": 12487371421, "lat": 8.6096316, "lon": -75.7411499, "tags": {"addr:city": "Monter\u00eda", "addr:state": "C\u00f3rdoba", "amenity": "school", "name": "Institucion Educativa Patio Bonito", "operator:type": "public", "phone": "3126702648", "source": "DANE"}}, {"type": "node", "id": 12487371423, "lat": 8.8130257, "lon": -75.814047, "tags": {"addr:city": "Monter\u00eda", "addr:state": "C\u00f3rdoba", "amenity": "school", "name": "Institucion Educativa Aguas Negras", "operator:type": "public", "source": "DANE"}}, {"type": "node", "id": 12487371425, "lat": 8.6424385, "lon": -75.8781706, "tags": {"addr:city": "Monter\u00eda", "addr:state": "C\u00f3rdoba", "amenity": "school", "name": "Escuela Rural Mixta De Guateque", "operator:type": "public", "phone": "823899", "source": "DANE"}}, {"type": "node", "id": 12487371426, "lat": 8.8280919, "lon": -75.834281, "tags": {"addr:city": "Monter\u00eda", "addr:state": "C\u00f3rdoba", "amenity": "school", "name": "Escuela Urb Mix N. 1 De Los Garzones", "operator:type": "public", "source": "DANE"}}, {"type": "node", "id": 12487371427, "lat": 8.694447, "lon": -75.8414992, "tags": {"addr:city": "Monter\u00eda", "addr:state": "C\u00f3rdoba", "amenity": "school", "name": "Escuela Rural Mixta Loma Grande", "operator:type": "public", "source": "DANE"}}, {"type": "node", "id": 12487371430, "lat": 8.6576016, "lon": -75.7821243, "tags": {"addr:city": "Monter\u00eda", "addr:state": "C\u00f3rdoba", "amenity": "school", "name": "Escuela Rur Mix Las Lomas", "operator:type": "public", "source": "DANE"}}, {"type": "node", "id": 12487371432, "lat": 8.749444, "lon": -75.893611, "tags": {"addr:city": "Monter\u00eda", "addr:state": "C\u00f3rdoba", "amenity": "school", "name": "Escuela Rur Mix Quebrada Del Medio", "operator:type": "public", "source": "DANE"}}, {"type": "node", "id": 12487371434, "lat": 8.717273, "lon": -75.7870286, "tags": {"addr:city": "Monter\u00eda", "addr:state": "C\u00f3rdoba", "amenity": "school", "name": "Institucion Educativa Educ El Cerrito", "operator:type": "public", "source": "DANE"}}, {"type": "node", "id": 12487371436, "lat": 8.8592526, "lon": -75.8970545, "tags": {"addr:city": "Monter\u00eda", "addr:state": "C\u00f3rdoba", "amenity": "school", "name": "Centro Educativo Ca\u00f1o Viejo Palotal", "operator:type": "public", "phone": "3114354456", "source": "DANE"}}, {"type": "node", "id": 12487371437, "lat": 8.7514257, "lon": -75.8148646, "tags": {"addr:city": "Monter\u00eda", "addr:state": "C\u00f3rdoba", "amenity": "school", "name": "Institucion Educativa Besito Volao", "operator:type": "public", "source": "DANE"}}, {"type": "node", "id": 12487371439, "lat": 8.8355556, "lon": -75.845, "tags": {"addr:city": "Monter\u00eda", "addr:state": "C\u00f3rdoba", "amenity": "school", "name": "Escuela Rur Mix De Buenaventura", "operator:type": "public", "source": "DANE"}}, {"type": "node", "id": 12487371477, "lat": 8.6964344, "lon": -75.8715825, "tags": {"addr:city": "Monter\u00eda", "addr:state": "C\u00f3rdoba", "amenity": "school", "name": "Escuela Nva Charcon Botella", "operator:type": "public", "source": "DANE"}}, {"type": "node", "id": 12487371480, "lat": 8.7803081, "lon": -75.8257956, "tags": {"addr:city": "Monter\u00eda", "addr:state": "C\u00f3rdoba", "amenity": "school", "name": "Escuela Rural Mixta El Tapao", "operator:type": "public", "source": "DANE"}}, {"type": "node", "id": 12487371484, "lat": 8.811667, "lon": -75.899722, "tags": {"addr:city": "Monter\u00eda", "addr:state": "C\u00f3rdoba", "amenity": "school", "name": "Escuela Nva El Vidrial", "operator:type": "public", "source": "DANE"}}, {"type": "node", "id": 12487371486, "lat": 8.763056, "lon": -75.844722, "tags": {"addr:city": "Monter\u00eda", "addr:state": "C\u00f3rdoba", "amenity": "school", "name": "Escuela Rural Mixta Del Horizonte", "operator:type": "public", "source": "DANE"}}, {"type": "node", "id": 12487371487, "lat": 8.7819444, "lon": -75.8658333, "tags": {"addr:city": "Monter\u00eda", "addr:state": "C\u00f3rdoba", "amenity": "school", "name": "Escuela Rural Mixta San Martin", "operator:type": "public", "source": "DANE"}}, {"type": "node", "id": 12487371500, "lat": 8.8344587, "lon": -75.8567464, "tags": {"addr:city": "Monter\u00eda", "addr:state": "C\u00f3rdoba", "amenity": "school", "name": "Escuela Rur Mix Boca De La Ceiba", "operator:type": "public", "source": "DANE"}}, {"type": "node", "id": 12487371502, "lat": 8.8514004, "lon": -75.8589355, "tags": {"addr:city": "Monter\u00eda", "addr:state": "C\u00f3rdoba", "amenity": "school", "name": "Escuela Rural Mixta De Arenal", "operator:type": "public", "source": "DANE"}}, {"type": "node", "id": 12487371504, "lat": 8.8002146, "lon": -75.8584609, "tags": {"addr:city": "Monter\u00eda", "addr:state": "C\u00f3rdoba", "amenity": "school", "name": "Escuela Urb Mix Del Sinu", "operator:type": "public", "phone": "7861049", "source": "DANE"}}, {"type": "node", "id": 12487371505, "lat": 8.795031, "lon": -75.816129, "tags": {"addr:city": "Monter\u00eda", "addr:state": "C\u00f3rdoba", "amenity": "school", "name": "Escuela Unitaria Claval", "operator:type": "public", "source": "DANE"}}, {"type": "node", "id": 12487371710, "lat": 8.837675, "lon": -75.83345, "tags": {"addr:city": "Ceret\u00e9", "addr:state": "C\u00f3rdoba", "amenity": "school", "name": "Escuela Rural Mixta San Jose De Chocolate", "operator:type": "public", "phone": "7744938", "source": "DANE"}}, {"type": "node", "id": 12487371712, "lat": 8.8500247, "lon": -75.8517441, "tags": {"addr:city": "Ceret\u00e9", "addr:state": "C\u00f3rdoba", "amenity": "school", "name": "Escuela Jesus Maria Buelbas N Isla Blanca", "operator:type": "public", "phone": "860016", "source": "DANE"}}, {"type": "node", "id": 12487371728, "lat": 8.838232, "lon": -75.833566, "tags": {"addr:city": "Ceret\u00e9", "addr:state": "C\u00f3rdoba", "amenity": "school", "name": "Escuela Rural Mixta Mateo Gomez", "operator:type": "public", "phone": "746721", "source": "DANE"}}, {"type": "node", "id": 12487371899, "lat": 8.677669, "lon": -75.799655, "tags": {"addr:city": "Monter\u00eda", "addr:state": "C\u00f3rdoba", "amenity": "school", "name": "Centro Educativo Centro De Atenci\u00f3n Especializado Villa Luz", "operator:type": "public", "phone": "3104893918", "source": "DANE"}}, {"type": "node", "id": 12487371908, "lat": 8.6793023, "lon": -75.8654435, "tags": {"addr:city": "Monter\u00eda", "addr:state": "C\u00f3rdoba", "amenity": "school", "name": "Escuela Maria Inmaculadal Alto Del", "operator:type": "public", "source": "DANE"}}, {"type": "node", "id": 12487371910, "lat": 8.7983963, "lon": -75.8381357, "tags": {"addr:city": "Monter\u00eda", "addr:state": "C\u00f3rdoba", "amenity": "school", "name": "Institucion Educ Aguas Negras Sede California", "operator:type": "public", "source": "DANE"}}, {"type": "node", "id": 12487371911, "lat": 8.7309534, "lon": -75.7925837, "tags": {"addr:city": "Monter\u00eda", "addr:state": "C\u00f3rdoba", "amenity": "school", "name": "Escuela Rural Mixta Toledo", "operator:type": "public", "phone": "7906262", "source": "DANE"}}, {"type": "node", "id": 12487375461, "lat": 8.714356, "lon": -75.8923105, "tags": {"addr:city": "Monter\u00eda", "addr:state": "C\u00f3rdoba", "amenity": "school", "name": "Institucion Educativa El Recuerdo", "operator:type": "public", "phone": "3106067160", "source": "DANE"}}, {"type": "node", "id": 12487375462, "lat": 8.7297138, "lon": -75.8899312, "tags": {"addr:city": "Monter\u00eda", "addr:state": "C\u00f3rdoba", "amenity": "school", "name": "Institucion Educ Semillas De Esperanza", "operator:type": "public", "phone": "3158578010", "source": "DANE"}}, {"type": "node", "id": 12487375463, "lat": 8.7261094, "lon": -75.8743582, "tags": {"addr:city": "Monter\u00eda", "addr:state": "C\u00f3rdoba", "amenity": "school", "name": "Institucion Educ Los Nogales", "operator:type": "public", "phone": "3008170551", "source": "DANE"}}, {"type": "node", "id": 12487375464, "lat": 8.7441875, "lon": -75.9070393, "tags": {"addr:city": "Monter\u00eda", "addr:state": "C\u00f3rdoba", "amenity": "school", "name": "Institucion Educ Los Colores", "operator:type": "public", "source": "DANE"}}, {"type": "node", "id": 12487375465, "lat": 8.8194444, "lon": -75.8841667, "tags": {"addr:city": "Monter\u00eda", "addr:state": "C\u00f3rdoba", "amenity": "school", "name": "Escuela Paz Del Norte", "operator:type": "public", "source": "DANE"}}, {"type": "node", "id": 12487375466, "lat": 8.7911111, "lon": -75.8655556, "tags": {"addr:city": "Monter\u00eda", "addr:state": "C\u00f3rdoba", "amenity": "school", "name": "Escuela Nvo Bosque", "operator:type": "public", "phone": "3116998031", "source": "DANE"}}, {"type": "node", "id": 12487375467, "lat": 8.7319444, "lon": -75.8933333, "tags": {"addr:city": "Monter\u00eda", "addr:state": "C\u00f3rdoba", "amenity": "school", "name": "Centro Educativo Manuel Ruiz Alvarez", "operator:type": "public", "phone": "7834744", "source": "DANE"}}, {"type": "node", "id": 12487375468, "lat": 8.85, "lon": -75.8888889, "tags": {"addr:city": "Monter\u00eda", "addr:state": "C\u00f3rdoba", "amenity": "school", "name": "Escuela Villa De Los Alpes", "operator:type": "public", "source": "DANE"}}, {"type": "node", "id": 12487375469, "lat": 8.7491667, "lon": -75.8866667, "tags": {"addr:city": "Monter\u00eda", "addr:state": "C\u00f3rdoba", "amenity": "school", "name": "Escuela Laureano Jose Mestra Mora", "operator:type": "public", "phone": "7921631", "source": "DANE"}}, {"type": "node", "id": 12487375470, "lat": 8.7500245, "lon": -75.8809443, "tags": {"addr:city": "Monter\u00eda", "addr:state": "C\u00f3rdoba", "amenity": "school", "name": "Liceo San Fco De Asis", "operator:type": "public", "phone": "7841453", "source": "DANE"}}, {"type": "node", "id": 12487375471, "lat": 8.6790514, "lon": -75.8021015, "tags": {"addr:city": "Monter\u00eda", "addr:state": "C\u00f3rdoba", "amenity": "school", "name": "Colegio De Educ Bca Km 12", "operator:type": "public", "source": "DANE"}}, {"type": "node", "id": 12487375472, "lat": 8.7488889, "lon": -75.8925, "tags": {"addr:city": "Monter\u00eda", "addr:state": "C\u00f3rdoba", "amenity": "school", "name": "Escuela Urb Mix El Alivio", "operator:type": "public", "phone": "7927341", "source": "DANE"}}, {"type": "node", "id": 12487375473, "lat": 8.7602778, "lon": -75.8888889, "tags": {"addr:city": "Monter\u00eda", "addr:state": "C\u00f3rdoba", "amenity": "school", "name": "Liceo Univ Juan Manuel Mendez B", "operator:type": "public", "phone": "7902079", "source": "DANE"}}, {"type": "node", "id": 12487375474, "lat": 8.7444145, "lon": -75.8797794, "tags": {"addr:city": "Monter\u00eda", "addr:state": "C\u00f3rdoba", "amenity": "school", "name": "Centro Educativo Cent De Educ Esp Sgdo Corazon De Jesus", "operator:type": "public", "phone": "7837134", "source": "DANE"}}, {"type": "node", "id": 12487375475, "lat": 8.7563889, "lon": -75.8916667, "tags": {"addr:city": "Monter\u00eda", "addr:state": "C\u00f3rdoba", "amenity": "school", "name": "Colegio Cristobal Colon", "operator:type": "public", "phone": "7921427", "source": "DANE"}}, {"type": "node", "id": 12487375476, "lat": 8.7522222, "lon": -75.9016667, "tags": {"addr:city": "Monter\u00eda", "addr:state": "C\u00f3rdoba", "amenity": "school", "name": "Colegio Sta Rosa De Lima", "operator:type": "public", "phone": "7831069", "source": "DANE"}}, {"type": "node", "id": 12487375477, "lat": 8.7513889, "lon": -75.8888889, "tags": {"addr:city": "Monter\u00eda", "addr:state": "C\u00f3rdoba", "amenity": "school", "name": "Escuela Urb Mix Camilo Lamadrid Fabra", "operator:type": "public", "source": "DANE"}}, {"type": "node", "id": 12487375478, "lat": 8.7441667, "lon": -75.8825, "tags": {"addr:city": "Monter\u00eda", "addr:state": "C\u00f3rdoba", "amenity": "school", "name": "Escuela Fundadores Comunitarios", "operator:type": "public", "phone": "7927341", "source": "DANE"}}, {"type": "node", "id": 12487375479, "lat": 8.6261392, "lon": -75.8565175, "tags": {"addr:city": "Monter\u00eda", "addr:state": "C\u00f3rdoba", "amenity": "school", "name": "Escuela Rural Mixta El Paraiso", "operator:type": "public", "source": "DANE"}}, {"type": "node", "id": 12487375480, "lat": 8.7669444, "lon": -75.8919444, "tags": {"addr:city": "Monter\u00eda", "addr:state": "C\u00f3rdoba", "amenity": "school", "name": "Jardin Infantil El Minuto De Dios", "operator:type": "public", "phone": "7841477", "source": "DANE"}}, {"type": "node", "id": 12487375481, "lat": 8.7602778, "lon": -75.9066667, "tags": {"addr:city": "Monter\u00eda", "addr:state": "C\u00f3rdoba", "amenity": "school", "name": "Institucion Educativa Sta Maria", "operator:type": "public", "phone": "7833676", "source": "DANE"}}, {"type": "node", "id": 12487375482, "lat": 8.7519444, "lon": -75.8963889, "tags": {"addr:city": "Monter\u00eda", "addr:state": "C\u00f3rdoba", "amenity": "school", "name": "Escuela Valle Del Sinu", "operator:type": "public", "phone": "7905013", "source": "DANE"}}, {"type": "node", "id": 12487375483, "lat": 8.7386111, "lon": -75.8672222, "tags": {"addr:city": "Monter\u00eda", "addr:state": "C\u00f3rdoba", "amenity": "school", "name": "Escuela Urb Mix El Paraiso", "operator:type": "public", "phone": "7867339", "source": "DANE"}}, {"type": "node", "id": 12487375484, "lat": 8.7357139, "lon": -75.8656705, "tags": {"addr:city": "Monter\u00eda", "addr:state": "C\u00f3rdoba", "amenity": "school", "name": "Colegio Victoria Manzur De Amin", "operator:type": "public", "source": "DANE"}}, {"type": "node", "id": 12487375485, "lat": 8.7302778, "lon": -75.8925, "tags": {"addr:city": "Monter\u00eda", "addr:state": "C\u00f3rdoba", "amenity": "school", "name": "Escuela 2 De Septiembre", "operator:type": "public", "source": "DANE"}}, {"type": "node", "id": 12487375486, "lat": 8.7672222, "lon": -75.895, "tags": {"addr:city": "Monter\u00eda", "addr:state": "C\u00f3rdoba", "amenity": "school", "name": "Escuela Severo J Garcia", "operator:type": "public", "phone": "7830853", "source": "DANE"}}, {"type": "node", "id": 12487375487, "lat": 8.7563889, "lon": -75.8966667, "tags": {"addr:city": "Monter\u00eda", "addr:state": "C\u00f3rdoba", "amenity": "school", "name": "Colegio Villa Margarita", "operator:type": "public", "phone": "7834641", "source": "DANE"}}, {"type": "node", "id": 12487375488, "lat": 8.7913889, "lon": -75.9291667, "tags": {"addr:city": "Monter\u00eda", "addr:state": "C\u00f3rdoba", "amenity": "school", "name": "Institucion Educativa Rancho Grande", "operator:type": "public", "phone": "7842197", "source": "DANE"}}, {"type": "node", "id": 12487375489, "lat": 8.7322222, "lon": -75.8872222, "tags": {"addr:city": "Monter\u00eda", "addr:state": "C\u00f3rdoba", "amenity": "school", "name": "Escuela Urb Mix El Prado", "operator:type": "public", "phone": "7832877", "source": "DANE"}}, {"type": "node", "id": 12487375490, "lat": 8.8091667, "lon": -75.8883333, "tags": {"addr:city": "Monter\u00eda", "addr:state": "C\u00f3rdoba", "amenity": "school", "name": "Institucion Educativa Mogambo", "operator:type": "public", "phone": "7831558", "source": "DANE"}}, {"type": "node", "id": 12487375491, "lat": 8.7289101, "lon": -75.8880268, "tags": {"addr:city": "Monter\u00eda", "addr:state": "C\u00f3rdoba", "amenity": "school", "name": "Escuela Urb Mix Panzenu", "operator:type": "public", "phone": "7831747", "source": "DANE"}}, {"type": "node", "id": 12487375620, "lat": 8.7677778, "lon": -75.89, "tags": {"addr:city": "Monter\u00eda", "addr:state": "C\u00f3rdoba", "amenity": "school", "name": "Escuela Norm Al Superior", "operator:type": "public", "phone": "7840104", "source": "DANE"}}, {"type": "node", "id": 12487375621, "lat": 8.7522222, "lon": -75.9030556, "tags": {"addr:city": "Monter\u00eda", "addr:state": "C\u00f3rdoba", "amenity": "school", "name": "Institucion Educativa Liceo Guillermo Valencia", "operator:type": "public", "phone": "7866577", "source": "DANE"}}, {"type": "node", "id": 12487375622, "lat": 8.7356695, "lon": -75.8794119, "tags": {"addr:city": "Monter\u00eda", "addr:state": "C\u00f3rdoba", "amenity": "school", "name": "Escuela Urb Mix Seis De Marzo", "operator:type": "public", "phone": "7868497", "source": "DANE"}}, {"type": "node", "id": 12487375623, "lat": 8.7602778, "lon": -75.8763889, "tags": {"addr:city": "Monter\u00eda", "addr:state": "C\u00f3rdoba", "amenity": "school", "name": "Escuela Jorge Eliecer Gaitan", "operator:type": "public", "phone": "7831869", "source": "DANE"}}, {"type": "node", "id": 12487375624, "lat": 8.7541667, "lon": -75.8905556, "tags": {"addr:city": "Monter\u00eda", "addr:state": "C\u00f3rdoba", "amenity": "school", "name": "Institucion Educativa San Jose", "operator:type": "public", "phone": "7902631", "source": "DANE"}}, {"type": "node", "id": 12487375625, "lat": 8.75, "lon": -75.9011111, "tags": {"addr:city": "Monter\u00eda", "addr:state": "C\u00f3rdoba", "amenity": "school", "name": "Escuela Mix San Martin", "operator:type": "public", "phone": "7900382", "source": "DANE"}}, {"type": "node", "id": 12487375626, "lat": 8.7486111, "lon": -75.8994444, "tags": {"addr:city": "Monter\u00eda", "addr:state": "C\u00f3rdoba", "amenity": "school", "name": "Escuela Urb Mix Las Colinas", "operator:type": "public", "source": "DANE"}}, {"type": "node", "id": 12487375627, "lat": 8.7552778, "lon": -75.9, "tags": {"addr:city": "Monter\u00eda", "addr:state": "C\u00f3rdoba", "amenity": "school", "name": "Institucion Educativa La Ribera", "operator:type": "public", "phone": "7840296", "source": "DANE"}}, {"type": "node", "id": 12487375628, "lat": 8.7438889, "lon": -75.8875, "tags": {"addr:city": "Monter\u00eda", "addr:state": "C\u00f3rdoba", "amenity": "school", "name": "Escuela Urb Mix Pablo Vi", "operator:type": "public", "phone": "7832877", "source": "DANE"}}, {"type": "node", "id": 12487375629, "lat": 8.7676782, "lon": -75.8800589, "tags": {"addr:city": "Monter\u00eda", "addr:state": "C\u00f3rdoba", "amenity": "school", "name": "Escuela Antonio Jose De Sucre", "operator:type": "public", "phone": "7810201", "source": "DANE"}}, {"type": "node", "id": 12487375630, "lat": 8.73, "lon": -75.8955556, "tags": {"addr:city": "Monter\u00eda", "addr:state": "C\u00f3rdoba", "amenity": "school", "name": "Escuela Urb Mix Alfonso Lopez", "operator:type": "public", "source": "DANE"}}, {"type": "node", "id": 12487375631, "lat": 8.7933333, "lon": -75.8869444, "tags": {"addr:city": "Monter\u00eda", "addr:state": "C\u00f3rdoba", "amenity": "school", "name": "Colegio Inem Lorenzo Maria Lleras", "operator:type": "public", "phone": "7860251", "source": "DANE"}}, {"type": "node", "id": 12487375632, "lat": 8.7663445, "lon": -75.8773693, "tags": {"addr:city": "Monter\u00eda", "addr:state": "C\u00f3rdoba", "amenity": "school", "name": "Institucion Educativa Antonio Nari\u00f1o", "operator:type": "public", "phone": "7890234", "source": "DANE"}}, {"type": "node", "id": 12487375633, "lat": 8.7429987, "lon": -75.8840311, "tags": {"addr:city": "Monter\u00eda", "addr:state": "C\u00f3rdoba", "amenity": "school", "name": "Escuela Urb Mix Jose Antonio Galan", "operator:type": "public", "phone": "7866300", "source": "DANE"}}, {"type": "node", "id": 12487375634, "lat": 8.7366667, "lon": -75.8852778, "tags": {"addr:city": "Monter\u00eda", "addr:state": "C\u00f3rdoba", "amenity": "school", "name": "Escuela Urb Mix Gabriela Mistral", "operator:type": "public", "phone": "7866389", "source": "DANE"}}, {"type": "node", "id": 12487375635, "lat": 8.7660914, "lon": -75.888344, "tags": {"addr:city": "Monter\u00eda", "addr:state": "C\u00f3rdoba", "amenity": "school", "name": "Escuela Juan Xxiii", "operator:type": "public", "phone": "7841969", "source": "DANE"}}, {"type": "node", "id": 12487375636, "lat": 8.742964, "lon": -75.8955761, "tags": {"addr:city": "Monter\u00eda", "addr:state": "C\u00f3rdoba", "amenity": "school", "name": "Institucion Educativa Antonia Santos", "operator:type": "public", "phone": "7838040", "source": "DANE"}}, {"type": "node", "id": 12487375637, "lat": 8.7485171, "lon": -75.8872844, "tags": {"addr:city": "Monter\u00eda", "addr:state": "C\u00f3rdoba", "amenity": "school", "name": "Institucion Educativa Isabel La Catolica", "operator:type": "public", "phone": "7834112", "source": "DANE"}}, {"type": "node", "id": 12487375638, "lat": 8.7380556, "lon": -75.8872222, "tags": {"addr:city": "Monter\u00eda", "addr:state": "C\u00f3rdoba", "amenity": "school", "name": "Escuela Urb Mix Francisco Miranda", "operator:type": "public", "phone": "7837434", "source": "DANE"}}, {"type": "node", "id": 12487375639, "lat": 8.7491667, "lon": -75.8980556, "tags": {"addr:city": "Monter\u00eda", "addr:state": "C\u00f3rdoba", "amenity": "school", "name": "Institucion Educativa Policarpa Salavarrieta", "operator:type": "public", "phone": "7830236", "source": "DANE"}}, {"type": "node", "id": 12487375640, "lat": 8.76, "lon": -75.8888889, "tags": {"addr:city": "Monter\u00eda", "addr:state": "C\u00f3rdoba", "amenity": "school", "name": "Institucion Educativa La Inmaculada", "operator:type": "public", "phone": "7810555", "source": "DANE"}}, {"type": "node", "id": 12487375641, "lat": 8.7616667, "lon": -75.8977778, "tags": {"addr:city": "Monter\u00eda", "addr:state": "C\u00f3rdoba", "amenity": "school", "name": "Institucion Educativa Sta Maria Goretti", "operator:type": "public", "phone": "7835784", "source": "DANE"}}, {"type": "node", "id": 12487375642, "lat": 8.7505556, "lon": -75.9069444, "tags": {"addr:city": "Monter\u00eda", "addr:state": "C\u00f3rdoba", "amenity": "school", "name": "Escuela Urb Mix Miraflores", "operator:type": "public", "phone": "7842101", "source": "DANE"}}, {"type": "node", "id": 12487375643, "lat": 8.7598214, "lon": -75.8755272, "tags": {"addr:city": "Monter\u00eda", "addr:state": "C\u00f3rdoba", "amenity": "school", "name": "Escuela Urb Simon Bolivar", "operator:type": "public", "source": "DANE"}}, {"type": "node", "id": 12820916157, "lat": 8.7667023, "lon": -75.8776292}, {"type": "node", "id": 12820916158, "lat": 8.7668037, "lon": -75.8769273}, {"type": "node", "id": 12820916159, "lat": 8.76581, "lon": -75.8773485}, {"type": "node", "id": 12820916160, "lat": 8.7659902, "lon": -75.8766806}, {"type": "node", "id": 12973707503, "lat": 8.7334478, "lon": -75.8702985, "tags": {"addr:city": "Monteria", "addr:housenumber": "1", "addr:street": "12", "amenity": "school", "internet_access": "yes", "name": "Institucion Educativa Victoria Manzur (Sede Severo J. Garcia)", "opening_hours": "6:00", "wheelchair": "yes"}}, {"type": "node", "id": 12974486750, "lat": 8.7541127, "lon": -75.8980165, "tags": {"amenity": "school", "name": "Colegio la Rivera"}}, {"type": "way", "id": 318682296, "nodes": [3250563252, 3250563253, 3250563254, 3250563255, 3250563252], "tags": {"amenity": "school", "name": "Escuela Santa Mar\u00eda"}}, {"type": "way", "id": 351268974, "nodes": [3570302314, 3570302315, 3570302316, 3570302317, 3570302314], "tags": {"amenity": "school", "area": "yes", "name": "Instituci\u00f3n Educativa Mogambo - Sede Principal"}}, {"type": "way", "id": 354922977, "nodes": [3605719328, 3605719329, 3605719330, 3605719331, 3605719328], "tags": {"amenity": "school", "area": "yes", "name": "Instituci\u00f3n Educativa Mogambo Sede la Esperanza"}}, {"type": "way", "id": 545328314, "nodes": [507093510, 507093509, 5949201588, 507093513, 507093514, 507093510], "tags": {"amenity": "school", "name": "Colegio Sagrada Familia"}}, {"type": "way", "id": 545328316, "nodes": [5270661350, 9359933895, 9359933896, 9359933897, 9359933898, 5270661350], "tags": {"amenity": "school", "name": "Colegio Gimnasio Vallegrande"}}, {"type": "way", "id": 545328329, "nodes": [506575727, 9391343536, 9391343533, 9391343531, 9391343532, 9391343534, 9391343535, 470320227, 506575732, 506575730, 506575728, 506575762, 506575811, 506575813, 506575727], "tags": {"amenity": "school", "name": "Colegio Jos\u00e9 Mar\u00eda C\u00f3rdoba"}}, {"type": "way", "id": 545328330, "nodes": [9391338713, 5270661384, 506575573, 7650055055, 5270661385, 5270661386, 5270661387, 506575519, 9391338713], "tags": {"amenity": "school", "name": "Colegio La Salle"}}, {"type": "way", "id": 545331785, "nodes": [473177980, 473177979, 9387411209, 8449672858, 463515524, 463515523, 463515522, 473177991, 473177980], "tags": {"amenity": "school", "name": "Instituci\u00f3n Educativa Jaime Exbrayat"}}, {"type": "way", "id": 545596707, "nodes": [5273022403, 5273022404, 5273022405, 5273022406, 5273022407, 5273022408, 5273022409, 5273022410, 5273022411, 5273022412, 5273022413, 5273022414, 5273022403], "tags": {"amenity": "school", "building": "cathedral", "denomination": "mormon", "name": "Iglesia de los Santos de los \u00daltimos D\u00edas", "operator": "The Church of Jesus Christ of Latter-day Saints", "operator:type": "religious", "operator:wikidata": "Q42504", "religion": "christian"}}, {"type": "way", "id": 551506085, "nodes": [483006731, 473178541, 9785145256, 473178553, 483006737, 483006732, 483006731], "tags": {"amenity": "school", "name": "Instituci\u00f3n Educativa Merc\u00e9des Abrego"}}, {"type": "way", "id": 551506086, "nodes": [9379056692, 9379056693, 9379056690, 9379056691, 9379056692], "tags": {"amenity": "school", "name": "Instituci\u00f3n Educativa Guillermo Valencia"}}, {"type": "way", "id": 915943772, "nodes": [8507757441, 8507757440, 8507757439, 8507757438, 8507757441], "tags": {"amenity": "school", "building": "school", "contact:email": "gimelre@yahoo.com.mx", "contact:phone": "+57 4 7850962", "contact:website": "www.gimrecreo.edu.co", "name": "Gimnasio El Recreo", "operator": "Gimnasio El Recreo", "operator:type": "private"}}, {"type": "way", "id": 1278337897, "nodes": [11867518112, 11867518113, 11867518114, 11867518115, 11867518128, 11867518112], "tags": {"amenity": "school"}}, {"type": "way", "id": 1384763111, "nodes": [12820916157, 12820916158, 12820916160, 12820916159, 12820916157], "tags": {"addr:city": "Monter\u00eda", "addr:postcode": "230002", "addr:street": "Cl. 44 #2-23, Monter\u00eda, C\u00f3rdoba", "amenity": "school", "building": "school", "denomination": "catholic", "description": "Centro educativo b\u00e1sico- secundario de la ciudad de Monter\u00eda, ubicado en el barrio sucre en la Cl. 44 #2-23.", "grades": "1-11", "layer": "1", "name": "Instituci\u00f3n educativa Antonio Nari\u00f1o", "religion": "catolico", "short_name": "IEAN", "website": "https://ieanmonteria.edu.co/", "wheelchair": "yes"}}]}